{
  "type": "FeatureCollection",
  "name": "Capa sin nombre",
  "features": [
    {
      "type": "Feature",
      "properties": {
        "Name": "1. Kirche Santo Domingo de Guzmán — Das Grab des Korsaren",
        "audio": "https://xzymbvnljudyypdyuisf.supabase.co/storage/v1/object/public/anaga_de/Anaga.1.mp3"
      },
      "geometry": {
        "type": "Point",
        "coordinates": [
          -16.313423,
          28.485858,
          0.0
        ]
      }
    },
    {
      "type": "Feature",
      "properties": {
        "Name": "2. Alter Weg zum Pico del Inglés — Die Reise durch die Zeit",
        "audio": "https://xzymbvnljudyypdyuisf.supabase.co/storage/v1/object/public/anaga_de/Anaga.2.mp3"
      },
      "geometry": {
        "type": "Point",
        "coordinates": [
          -16.268433,
          28.535007,
          0.0
        ]
      }
    },
    {
      "type": "Feature",
      "properties": {
        "Name": "3. Aussichtspunkt Pico del Inglés — Der Balkon der Korsaren",
        "audio": "https://xzymbvnljudyypdyuisf.supabase.co/storage/v1/object/public/anaga_de/Anaga.3.mp3"
      },
      "geometry": {
        "type": "Point",
        "coordinates": [
          -16.263997,
          28.533007,
          0.0
        ]
      }
    },
    {
      "type": "Feature",
      "properties": {
        "Name": "4. Aussichtspunkt Bailadero — Wo sich Wege kreuzen… und Legenden",
        "audio": "https://xzymbvnljudyypdyuisf.supabase.co/storage/v1/object/public/anaga_de/Anaga.4.mp3"
      },
      "geometry": {
        "type": "Point",
        "coordinates": [
          -16.206877,
          28.549166,
          0.0
        ]
      }
    },
    {
      "type": "Feature",
      "properties": {
        "Name": "5. Aussichtspunkt Risco Amogoje — Das Versteck der Schmuggler",
        "audio": "https://xzymbvnljudyypdyuisf.supabase.co/storage/v1/object/public/anaga_de/Anaga.5.mp3"
      },
      "geometry": {
        "type": "Point",
        "coordinates": [
          -16.205677,
          28.558258,
          0.0
        ]
      }
    },
    {
      "type": "Feature",
      "properties": {
        "Name": "6. Taganana — Die Grenze zum Atlantik",
        "audio": "https://xzymbvnljudyypdyuisf.supabase.co/storage/v1/object/public/anaga_de/Anaga.6.mp3"
      },
      "geometry": {
        "type": "Point",
        "coordinates": [
          -16.21727,
          28.56047,
          0.0
        ]
      }
    },
    {
      "type": "Feature",
      "properties": {
        "Name": "7. Roque de las Bodegas — Der Hafen des Schmuggels und Shakespeares Wein",
        "audio": "https://xzymbvnljudyypdyuisf.supabase.co/storage/v1/object/public/anaga_de/Anaga.7.mp3"
      },
      "geometry": {
        "type": "Point",
        "coordinates": [
          -16.204568,
          28.571198,
          0.0
        ]
      }
    },
    {
      "type": "Feature",
      "properties": {
        "Name": "8. Almáciga — Das Brüllen des wilden Meeres",
        "audio": "https://xzymbvnljudyypdyuisf.supabase.co/storage/v1/object/public/anaga_de/Anaga.8.mp3"
      },
      "geometry": {
        "type": "Point",
        "coordinates": [
          -16.192508,
          28.572064,
          0.0
        ]
      }
    },
    {
      "type": "Feature",
      "properties": {
        "Name": "9. Castillo de Paso Alto — Der Wächter der Bucht",
        "audio": "https://xzymbvnljudyypdyuisf.supabase.co/storage/v1/object/public/anaga_de/Anaga.9.mp3"
      },
      "geometry": {
        "type": "Point",
        "coordinates": [
          -16.240959,
          28.480816,
          0.0
        ]
      }
    }
  ]
}