{
  "type": "FeatureCollection",
  "name": "Anaga French Stops",
  "features": [
    {
      "type": "Feature",
      "properties": {
        "Name": "0. Intro",
        "audio": "https://xzymbvnljudyypdyuisf.supabase.co/storage/v1/object/public/anaga_fr/Anaga.0.mp3"
      },
      "geometry": {
        "type": "Point",
        "coordinates": [
          -16.3135,
          28.4859,
          0.0
        ]
      }
    },
    {
      "type": "Feature",
      "properties": {
        "Name": "1. Ancien couvent de Santo Domingo",
        "audio": "https://xzymbvnljudyypdyuisf.supabase.co/storage/v1/object/public/anaga_fr/Anaga.1.mp3"
      },
      "geometry": {
        "type": "Point",
        "coordinates": [
          -16.313423,
          28.485858,
          0.0
        ]
      }
    },
    {
      "type": "Feature",
      "properties": {
        "Name": "2. Ancien chemin du Pico del Inglés",
        "audio": "https://xzymbvnljudyypdyuisf.supabase.co/storage/v1/object/public/anaga_fr/Anaga.2.mp3"
      },
      "geometry": {
        "type": "Point",
        "coordinates": [
          -16.268433,
          28.535007,
          0.0
        ]
      }
    },
    {
      "type": "Feature",
      "properties": {
        "Name": "3. Belvédère du Pico del Inglés",
        "audio": "https://xzymbvnljudyypdyuisf.supabase.co/storage/v1/object/public/anaga_fr/Anaga.3.mp3"
      },
      "geometry": {
        "type": "Point",
        "coordinates": [
          -16.263997,
          28.533007,
          0.0
        ]
      }
    },
    {
      "type": "Feature",
      "properties": {
        "Name": "4. Belvédère d'El Bailadero",
        "audio": "https://xzymbvnljudyypdyuisf.supabase.co/storage/v1/object/public/anaga_fr/Anaga.4.mp3"
      },
      "geometry": {
        "type": "Point",
        "coordinates": [
          -16.206877,
          28.549166,
          0.0
        ]
      }
    },
    {
      "type": "Feature",
      "properties": {
        "Name": "5. Belvédère de Risco Amogoje",
        "audio": "https://xzymbvnljudyypdyuisf.supabase.co/storage/v1/object/public/anaga_fr/Anaga.5.mp3"
      },
      "geometry": {
        "type": "Point",
        "coordinates": [
          -16.205677,
          28.558258,
          0.0
        ]
      }
    },
    {
      "type": "Feature",
      "properties": {
        "Name": "6. Taganana",
        "audio": "https://xzymbvnljudyypdyuisf.supabase.co/storage/v1/object/public/anaga_fr/Anaga.6.mp3"
      },
      "geometry": {
        "type": "Point",
        "coordinates": [
          -16.21727,
          28.56047,
          0.0
        ]
      }
    },
    {
      "type": "Feature",
      "properties": {
        "Name": "7. Roque de las Bodegas",
        "audio": "https://xzymbvnljudyypdyuisf.supabase.co/storage/v1/object/public/anaga_fr/Anaga.7.mp3"
      },
      "geometry": {
        "type": "Point",
        "coordinates": [
          -16.204568,
          28.571198,
          0.0
        ]
      }
    },
    {
      "type": "Feature",
      "properties": {
        "Name": "8. Plage d'Almáciga",
        "audio": "https://xzymbvnljudyypdyuisf.supabase.co/storage/v1/object/public/anaga_fr/Anaga.8.mp3"
      },
      "geometry": {
        "type": "Point",
        "coordinates": [
          -16.192508,
          28.572064,
          0.0
        ]
      }
    },
    {
      "type": "Feature",
      "properties": {
        "Name": "9. Château de Paso Alto",
        "audio": "https://xzymbvnljudyypdyuisf.supabase.co/storage/v1/object/public/anaga_fr/Anaga.9.mp3"
      },
      "geometry": {
        "type": "Point",
        "coordinates": [
          -16.240959,
          28.480816,
          0.0
        ]
      }
    }
  ]
}