{
  "type": "FeatureCollection",
  "name": "Anaga (EN)",
  "features": [
    {
      "type": "Feature",
      "properties": {
        "Name": "0. Introduction",
        "audio": "https://xzymbvnljudyypdyuisf.supabase.co/storage/v1/object/public/anaga_en/Anaga.0.mp3"
      },
      "geometry": {
        "type": "Point",
        "coordinates": [
          -16.3135,
          28.4859,
          0.0
        ]
      }
    },
    {
      "type": "Feature",
      "properties": {
        "Name": "1. Stop 1",
        "audio": "https://xzymbvnljudyypdyuisf.supabase.co/storage/v1/object/public/anaga_en/Anaga.1.mp3"
      },
      "geometry": {
        "type": "Point",
        "coordinates": [
          -16.3135,
          28.4859,
          0.0
        ]
      }
    },
    {
      "type": "Feature",
      "properties": {
        "Name": "2. Stop 2",
        "audio": "https://xzymbvnljudyypdyuisf.supabase.co/storage/v1/object/public/anaga_en/Anaga.2.mp3"
      },
      "geometry": {
        "type": "Point",
        "coordinates": [
          -16.313423,
          28.485858,
          0.0
        ]
      }
    },
    {
      "type": "Feature",
      "properties": {
        "Name": "3. Stop 3",
        "audio": "https://xzymbvnljudyypdyuisf.supabase.co/storage/v1/object/public/anaga_en/Anaga.3.mp3"
      },
      "geometry": {
        "type": "Point",
        "coordinates": [
          -16.268433,
          28.535007,
          0.0
        ]
      }
    },
    {
      "type": "Feature",
      "properties": {
        "Name": "4. Stop 4",
        "audio": "https://xzymbvnljudyypdyuisf.supabase.co/storage/v1/object/public/anaga_en/Anaga.4.mp3"
      },
      "geometry": {
        "type": "Point",
        "coordinates": [
          -16.263997,
          28.533007,
          0.0
        ]
      }
    },
    {
      "type": "Feature",
      "properties": {
        "Name": "5. Stop 5",
        "audio": "https://xzymbvnljudyypdyuisf.supabase.co/storage/v1/object/public/anaga_en/Anaga.5.mp3"
      },
      "geometry": {
        "type": "Point",
        "coordinates": [
          -16.206877,
          28.549166,
          0.0
        ]
      }
    },
    {
      "type": "Feature",
      "properties": {
        "Name": "6. Stop 6",
        "audio": "https://xzymbvnljudyypdyuisf.supabase.co/storage/v1/object/public/anaga_en/Anaga.6.mp3"
      },
      "geometry": {
        "type": "Point",
        "coordinates": [
          -16.205677,
          28.558258,
          0.0
        ]
      }
    },
    {
      "type": "Feature",
      "properties": {
        "Name": "7. Stop 7",
        "audio": "https://xzymbvnljudyypdyuisf.supabase.co/storage/v1/object/public/anaga_en/Anaga.7.mp3"
      },
      "geometry": {
        "type": "Point",
        "coordinates": [
          -16.21727,
          28.56047,
          0.0
        ]
      }
    },
    {
      "type": "Feature",
      "properties": {
        "Name": "8. Stop 8",
        "audio": "https://xzymbvnljudyypdyuisf.supabase.co/storage/v1/object/public/anaga_en/Anaga.8.mp3"
      },
      "geometry": {
        "type": "Point",
        "coordinates": [
          -16.204568,
          28.571198,
          0.0
        ]
      }
    },
    {
      "type": "Feature",
      "properties": {
        "Name": "9. Stop 9",
        "audio": "https://xzymbvnljudyypdyuisf.supabase.co/storage/v1/object/public/anaga_en/Anaga.9.mp3"
      },
      "geometry": {
        "type": "Point",
        "coordinates": [
          -16.192508,
          28.572064,
          0.0
        ]
      }
    }
  ]
}