{
  "type": "FeatureCollection",
  "name": "Candelaria Stops",
  "features": [
    {
      "type": "Feature",
      "properties": {
        "Name": "1. Plaza de la Patrona de Canarias",
        "audio": "https://xzymbvnljudyypdyuisf.supabase.co/storage/v1/object/public/candelaria_en/1.%20Candelaria.mp3"
      },
      "geometry": {
        "type": "Point",
        "coordinates": [-16.3697868, 28.3513008, 0.0]
      }
    },
    {
      "type": "Feature",
      "properties": {
        "Name": "2. Basílica de Nuestra Señora de Candelaria",
        "audio": "https://xzymbvnljudyypdyuisf.supabase.co/storage/v1/object/public/candelaria_en/2.%20Candelaria.mp3"
      },
      "geometry": {
        "type": "Point",
        "coordinates": [-16.3694216, 28.3512934, 0.0]
      }
    },
    {
      "type": "Feature",
      "properties": {
        "Name": "3. Ermita de San Blas and Cave of Achbinico",
        "audio": "https://xzymbvnljudyypdyuisf.supabase.co/storage/v1/object/public/candelaria_en/3.%20Candelaria.mp3"
      },
      "geometry": {
        "type": "Point",
        "coordinates": [-16.3690522, 28.3497505, 0.0]
      }
    },
    {
      "type": "Feature",
      "properties": {
        "Name": "4. Camino Real de Candelaria",
        "audio": "https://xzymbvnljudyypdyuisf.supabase.co/storage/v1/object/public/candelaria_en/4.%20Candelaria.mp3"
      },
      "geometry": {
        "type": "Point",
        "coordinates": [-16.3694086, 28.3516713, 0.0]
      }
    }
  ]
}
