{
  "type": "FeatureCollection",
  "name": "Candelaria Stops",
  "features": [
    {
      "type": "Feature",
      "properties": {
        "Name": "1. Place de la Patronne des Canaries",
        "audio": "https://xzymbvnljudyypdyuisf.supabase.co/storage/v1/object/public/candelaria_fr/1.mp3"
      },
      "geometry": {
        "type": "Point",
        "coordinates": [
          -16.3697868,
          28.3513008,
          0.0
        ]
      }
    },
    {
      "type": "Feature",
      "properties": {
        "Name": "2. Basilique de Candelaria",
        "audio": "https://xzymbvnljudyypdyuisf.supabase.co/storage/v1/object/public/candelaria_fr/2.mp3"
      },
      "geometry": {
        "type": "Point",
        "coordinates": [
          -16.3694216,
          28.3512934,
          0.0
        ]
      }
    },
    {
      "type": "Feature",
      "properties": {
        "Name": "3. Chapelle de San Blas et Grotte d'Achbinico",
        "audio": "https://xzymbvnljudyypdyuisf.supabase.co/storage/v1/object/public/candelaria_fr/3.mp3"
      },
      "geometry": {
        "type": "Point",
        "coordinates": [
          -16.3690522,
          28.3497505,
          0.0
        ]
      }
    },
    {
      "type": "Feature",
      "properties": {
        "Name": "4. Ancien Chemin Royal (Camino Real)",
        "audio": "https://xzymbvnljudyypdyuisf.supabase.co/storage/v1/object/public/candelaria_fr/4.mp3"
      },
      "geometry": {
        "type": "Point",
        "coordinates": [
          -16.3694086,
          28.3516713,
          0.0
        ]
      }
    }
  ]
}