{
  "type": "FeatureCollection",
  "name": "Candelaria (DE)",
  "features": [
    {
      "type": "Feature",
      "properties": {
        "Name": "0. Introduction",
        "audio": "https://xzymbvnljudyypdyuisf.supabase.co/storage/v1/object/public/candelaria_de/0.mp3"
      },
      "geometry": {
        "type": "Point",
        "coordinates": [
          -16.3697868,
          28.3513008,
          0
        ]
      }
    },
    {
      "type": "Feature",
      "properties": {
        "Name": "1. Plaza de la Patrona",
        "audio": "https://xzymbvnljudyypdyuisf.supabase.co/storage/v1/object/public/candelaria_de/1.mp3"
      },
      "geometry": {
        "type": "Point",
        "coordinates": [
          -16.3697868,
          28.3513008,
          0
        ]
      }
    },
    {
      "type": "Feature",
      "properties": {
        "Name": "2. Basilika Unserer Lieben Frau von Candelaria \u2013 Die geheimnisvolle Erscheinung, die zwei Welten vereinte.",
        "audio": ""
      },
      "geometry": {
        "type": "Point",
        "coordinates": [
          -16.3694216,
          28.3512934,
          0
        ]
      }
    },
    {
      "type": "Feature",
      "properties": {
        "Name": "2.1. Das Heiligtum mit Blick auf den Ozean.",
        "audio": "https://xzymbvnljudyypdyuisf.supabase.co/storage/v1/object/public/candelaria_de/2.1.mp3"
      },
      "geometry": {
        "type": "Point",
        "coordinates": [
          -16.3694216,
          28.3512934,
          0
        ]
      }
    },
    {
      "type": "Feature",
      "properties": {
        "Name": "2.2. Das Geheimnis der dunklen Frau.",
        "audio": "https://xzymbvnljudyypdyuisf.supabase.co/storage/v1/object/public/candelaria_de/2.2.mp3"
      },
      "geometry": {
        "type": "Point",
        "coordinates": [
          -16.3694216,
          28.3512934,
          0
        ]
      }
    },
    {
      "type": "Feature",
      "properties": {
        "Name": "2.3. MITTELSCHIFF \u2014 Der Weg zur Jungfrau.",
        "audio": "https://xzymbvnljudyypdyuisf.supabase.co/storage/v1/object/public/candelaria_de/2.3.mp3"
      },
      "geometry": {
        "type": "Point",
        "coordinates": [
          -16.3694216,
          28.3512934,
          0
        ]
      }
    },
    {
      "type": "Feature",
      "properties": {
        "Name": "2.4. DER HOCHALTAR \u2014 Die Jungfrau von Candelaria.",
        "audio": "https://xzymbvnljudyypdyuisf.supabase.co/storage/v1/object/public/candelaria_de/2.4.mp3"
      },
      "geometry": {
        "type": "Point",
        "coordinates": [
          -16.3694216,
          28.3512934,
          0
        ]
      }
    },
    {
      "type": "Feature",
      "properties": {
        "Name": "2.5. Chaxiraxi und die Jungfrau: eine einzige Pr\u00e4senz.",
        "audio": "https://xzymbvnljudyypdyuisf.supabase.co/storage/v1/object/public/candelaria_de/2.5.mp3"
      },
      "geometry": {
        "type": "Point",
        "coordinates": [
          -16.3694216,
          28.3512934,
          0
        ]
      }
    },
    {
      "type": "Feature",
      "properties": {
        "Name": "2.6. Rundgang durch den Tempel.",
        "audio": "https://xzymbvnljudyypdyuisf.supabase.co/storage/v1/object/public/candelaria_de/2.6.mp3"
      },
      "geometry": {
        "type": "Point",
        "coordinates": [
          -16.3694216,
          28.3512934,
          0
        ]
      }
    },
    {
      "type": "Feature",
      "properties": {
        "Name": "3. Ermita de San Blas & Cave",
        "audio": "https://xzymbvnljudyypdyuisf.supabase.co/storage/v1/object/public/candelaria_de/3.mp3"
      },
      "geometry": {
        "type": "Point",
        "coordinates": [
          -16.3690522,
          28.3497505,
          0
        ]
      }
    },
    {
      "type": "Feature",
      "properties": {
        "Name": "4. Alter K\u00f6nigsweg (Abschnitt am Platz) \u2013 Die Erinnerung lebt auf dem Weg nach Candelaria.",
        "audio": ""
      },
      "geometry": {
        "type": "Point",
        "coordinates": [
          -16.3694086,
          28.3516713,
          0
        ]
      }
    },
    {
      "type": "Feature",
      "properties": {
        "Name": "4.1. DER WEG \u2014 Die Route von Vergangenheit und Gegenwart.",
        "audio": "https://xzymbvnljudyypdyuisf.supabase.co/storage/v1/object/public/candelaria_de/4.1.mp3"
      },
      "geometry": {
        "type": "Point",
        "coordinates": [
          -16.3694086,
          28.3516713,
          0
        ]
      }
    },
    {
      "type": "Feature",
      "properties": {
        "Name": "4.2. DIE GROSSE WALLFAHRT \u2014 15. August.",
        "audio": "https://xzymbvnljudyypdyuisf.supabase.co/storage/v1/object/public/candelaria_de/4.2.mp3"
      },
      "geometry": {
        "type": "Point",
        "coordinates": [
          -16.3694086,
          28.3516713,
          0
        ]
      }
    },
    {
      "type": "Feature",
      "properties": {
        "Name": "4.3. EINE TRADITION, DIE AUS WEITER FERNE KOMMT.",
        "audio": "https://xzymbvnljudyypdyuisf.supabase.co/storage/v1/object/public/candelaria_de/4.3.mp3"
      },
      "geometry": {
        "type": "Point",
        "coordinates": [
          -16.3694086,
          28.3516713,
          0
        ]
      }
    }
  ]
}
