{
  "type": "FeatureCollection",
  "name": "Costa Adeje Stops",
  "features": [
    {
      "type": "Feature",
      "properties": {
        "Name": "1. Playa de Los Cristianos & Playa de Las Vistas",
        "audio": "https://xzymbvnljudyypdyuisf.supabase.co/storage/v1/object/public/costa-adeje_de/1.mp3"
      },
      "geometry": {
        "type": "Point",
        "coordinates": [
          -16.7177511,
          28.0503209
        ]
      }
    },
    {
      "type": "Feature",
      "properties": {
        "Name": "2. Playa del Camisón",
        "audio": "https://xzymbvnljudyypdyuisf.supabase.co/storage/v1/object/public/costa-adeje_de/2.mp3"
      },
      "geometry": {
        "type": "Point",
        "coordinates": [
          -16.731289,
          28.0530528
        ]
      }
    },
    {
      "type": "Feature",
      "properties": {
        "Name": "3. Golden Mile (Playa de las Américas)",
        "audio": "https://xzymbvnljudyypdyuisf.supabase.co/storage/v1/object/public/costa-adeje_de/3.mp3"
      },
      "geometry": {
        "type": "Point",
        "coordinates": [
          -16.7319092,
          28.0551464
        ]
      }
    },
    {
      "type": "Feature",
      "properties": {
        "Name": "4. Francisco Andrade Fumero Promenade & Danilenko-Garten",
        "audio": "https://xzymbvnljudyypdyuisf.supabase.co/storage/v1/object/public/costa-adeje_de/4.mp3"
      },
      "geometry": {
        "type": "Point",
        "coordinates": [
          -16.7362205,
          28.0545691
        ]
      }
    },
    {
      "type": "Feature",
      "properties": {
        "Name": "5. Windfall-Skulptur",
        "audio": "https://xzymbvnljudyypdyuisf.supabase.co/storage/v1/object/public/costa-adeje_de/5.mp3"
      },
      "geometry": {
        "type": "Point",
        "coordinates": [
          -16.7369379,
          28.0559678
        ]
      }
    },
    {
      "type": "Feature",
      "properties": {
        "Name": "6. Mirador del Dedo & Naturbecken",
        "audio": "https://xzymbvnljudyypdyuisf.supabase.co/storage/v1/object/public/costa-adeje_de/6.mp3"
      },
      "geometry": {
        "type": "Point",
        "coordinates": [
          -16.736834,
          28.056283
        ]
      }
    },
    {
      "type": "Feature",
      "properties": {
        "Name": "7. BIC ZONE \"El Búnker - El Medio\"",
        "audio": "https://xzymbvnljudyypdyuisf.supabase.co/storage/v1/object/public/costa-adeje_de/7.mp3"
      },
      "geometry": {
        "type": "Point",
        "coordinates": [
          -16.7361481,
          28.0588892
        ]
      }
    },
    {
      "type": "Feature",
      "properties": {
        "Name": "8. Playa de las Américas (Surfzone)",
        "audio": "https://xzymbvnljudyypdyuisf.supabase.co/storage/v1/object/public/costa-adeje_de/8.mp3"
      },
      "geometry": {
        "type": "Point",
        "coordinates": [
          -16.7342448,
          28.0620247
        ]
      }
    },
    {
      "type": "Feature",
      "properties": {
        "Name": "9. Playas de Troya",
        "audio": "https://xzymbvnljudyypdyuisf.supabase.co/storage/v1/object/public/costa-adeje_de/9.mp3"
      },
      "geometry": {
        "type": "Point",
        "coordinates": [
          -16.7328708,
          28.0682409
        ]
      }
    },
    {
      "type": "Feature",
      "properties": {
        "Name": "10. Puerto Colón",
        "audio": "https://xzymbvnljudyypdyuisf.supabase.co/storage/v1/object/public/costa-adeje_de/10.mp3"
      },
      "geometry": {
        "type": "Point",
        "coordinates": [
          -16.7359318,
          28.0778801
        ]
      }
    },
    {
      "type": "Feature",
      "properties": {
        "Name": "11. Playa de la Pinta",
        "audio": "https://xzymbvnljudyypdyuisf.supabase.co/storage/v1/object/public/costa-adeje_de/11.mp3"
      },
      "geometry": {
        "type": "Point",
        "coordinates": [
          -16.7353506,
          28.0798185
        ]
      }
    },
    {
      "type": "Feature",
      "properties": {
        "Name": "12. Playa de Fañabé",
        "audio": "https://xzymbvnljudyypdyuisf.supabase.co/storage/v1/object/public/costa-adeje_de/12.mp3"
      },
      "geometry": {
        "type": "Point",
        "coordinates": [
          -16.7367945,
          28.0852098
        ]
      }
    },
    {
      "type": "Feature",
      "properties": {
        "Name": "13. La Caleta & Parque de La Fresa",
        "audio": "https://xzymbvnljudyypdyuisf.supabase.co/storage/v1/object/public/costa-adeje_de/13.mp3"
      },
      "geometry": {
        "type": "Point",
        "coordinates": [
          -16.7404115,
          28.0898369
        ]
      }
    },
    {
      "type": "Feature",
      "properties": {
        "Name": "14. Playa del Duque",
        "audio": "https://xzymbvnljudyypdyuisf.supabase.co/storage/v1/object/public/costa-adeje_de/14.mp3"
      },
      "geometry": {
        "type": "Point",
        "coordinates": [
          -16.7439204,
          28.091441
        ]
      }
    }
  ]
}