{
  "type": "FeatureCollection",
  "name": "La Laguna (FR)",
  "features": [
    {
      "type": "Feature",
      "properties": {
        "Name": "0. Introduction",
        "audio": "https://xzymbvnljudyypdyuisf.supabase.co/storage/v1/object/public/la-laguna_fr/0.mp3"
      },
      "geometry": {
        "type": "Point",
        "coordinates": [
          -16.320638,
          28.4905227
        ]
      }
    },
    {
      "type": "Feature",
      "properties": {
        "Name": "1. Stop 1",
        "audio": "https://xzymbvnljudyypdyuisf.supabase.co/storage/v1/object/public/la-laguna_fr/1.mp3"
      },
      "geometry": {
        "type": "Point",
        "coordinates": [
          -16.320638,
          28.4905227
        ]
      }
    },
    {
      "type": "Feature",
      "properties": {
        "Name": "2. Stop 2",
        "audio": "https://xzymbvnljudyypdyuisf.supabase.co/storage/v1/object/public/la-laguna_fr/2.mp3"
      },
      "geometry": {
        "type": "Point",
        "coordinates": [
          -16.3149336,
          28.4895207
        ]
      }
    },
    {
      "type": "Feature",
      "properties": {
        "Name": "3. Stop 3",
        "audio": "https://xzymbvnljudyypdyuisf.supabase.co/storage/v1/object/public/la-laguna_fr/3.mp3"
      },
      "geometry": {
        "type": "Point",
        "coordinates": [
          -16.3160518,
          28.488914
        ]
      }
    },
    {
      "type": "Feature",
      "properties": {
        "Name": "4. Stop 4",
        "audio": "https://xzymbvnljudyypdyuisf.supabase.co/storage/v1/object/public/la-laguna_fr/4.mp3"
      },
      "geometry": {
        "type": "Point",
        "coordinates": [
          -16.316983,
          28.4888481
        ]
      }
    },
    {
      "type": "Feature",
      "properties": {
        "Name": "5. Stop 5",
        "audio": "https://xzymbvnljudyypdyuisf.supabase.co/storage/v1/object/public/la-laguna_fr/5.mp3"
      },
      "geometry": {
        "type": "Point",
        "coordinates": [
          -16.3138306,
          28.4879734
        ]
      }
    },
    {
      "type": "Feature",
      "properties": {
        "Name": "6. Stop 6",
        "audio": "https://xzymbvnljudyypdyuisf.supabase.co/storage/v1/object/public/la-laguna_fr/6.mp3"
      },
      "geometry": {
        "type": "Point",
        "coordinates": [
          -16.3134443,
          28.4878415
        ]
      }
    },
    {
      "type": "Feature",
      "properties": {
        "Name": "7. Stop 7",
        "audio": "https://xzymbvnljudyypdyuisf.supabase.co/storage/v1/object/public/la-laguna_fr/7.mp3"
      },
      "geometry": {
        "type": "Point",
        "coordinates": [
          -16.3139771,
          28.4872516
        ]
      }
    },
    {
      "type": "Feature",
      "properties": {
        "Name": "8. Stop 8",
        "audio": "https://xzymbvnljudyypdyuisf.supabase.co/storage/v1/object/public/la-laguna_fr/8.mp3"
      },
      "geometry": {
        "type": "Point",
        "coordinates": [
          -16.3139553,
          28.4878436
        ]
      }
    }
  ]
}