{
  "type": "FeatureCollection",
  "name": "La Orotava Stops (DE)",
  "features": [
    {
      "type": "Feature",
      "properties": {
        "Name": "0. Einführung",
        "audio": "https://xzymbvnljudyypdyuisf.supabase.co/storage/v1/object/public/orotava_de/0.mp3"
      },
      "geometry": {
        "type": "Point",
        "coordinates": [
          -16.5232417,
          28.3906668
        ]
      }
    },
    {
      "type": "Feature",
      "properties": {
        "Name": "1. Plaza de la Constitución",
        "audio": "https://xzymbvnljudyypdyuisf.supabase.co/storage/v1/object/public/orotava_de/1.mp3"
      },
      "geometry": {
        "type": "Point",
        "coordinates": [
          -16.5232417,
          28.3906668
        ]
      }
    },
    {
      "type": "Feature",
      "properties": {
        "Name": "2. Liceo de Taoro"
      },
      "geometry": {
        "type": "Point",
        "coordinates": [
          -16.5226334,
          28.3901557
        ]
      }
    },
    {
      "type": "Feature",
      "properties": {
        "Name": "2.0 Liceo de Taoro",
        "audio": "https://xzymbvnljudyypdyuisf.supabase.co/storage/v1/object/public/orotava_de/2.0.mp3"
      },
      "geometry": {
        "type": "Point",
        "coordinates": [
          -16.5226334,
          28.3901557
        ]
      }
    },
    {
      "type": "Feature",
      "properties": {
        "Name": "2.1 Die Terrassengärten",
        "audio": "https://xzymbvnljudyypdyuisf.supabase.co/storage/v1/object/public/orotava_de/2.1.mp3"
      },
      "geometry": {
        "type": "Point",
        "coordinates": [
          -16.5226334,
          28.3901557
        ]
      }
    },
    {
      "type": "Feature",
      "properties": {
        "Name": "2.2 Die Eingangshalle",
        "audio": "https://xzymbvnljudyypdyuisf.supabase.co/storage/v1/object/public/orotava_de/2.2.mp3"
      },
      "geometry": {
        "type": "Point",
        "coordinates": [
          -16.5226334,
          28.3901557
        ]
      }
    },
    {
      "type": "Feature",
      "properties": {
        "Name": "2.3 Die Café-Terrasse",
        "audio": "https://xzymbvnljudyypdyuisf.supabase.co/storage/v1/object/public/orotava_de/2.3.mp3"
      },
      "geometry": {
        "type": "Point",
        "coordinates": [
          -16.5226334,
          28.3901557
        ]
      }
    },
    {
      "type": "Feature",
      "properties": {
        "Name": "2.4 Die Treppe",
        "audio": "https://xzymbvnljudyypdyuisf.supabase.co/storage/v1/object/public/orotava_de/2.4.mp3"
      },
      "geometry": {
        "type": "Point",
        "coordinates": [
          -16.5226334,
          28.3901557
        ]
      }
    },
    {
      "type": "Feature",
      "properties": {
        "Name": "3. The Victoria Gardens & The Masonic Mausoleum — Das Exil in Quinta Roja"
      },
      "geometry": {
        "type": "Point",
        "coordinates": [
          -16.5229748,
          28.3895012
        ]
      }
    },
    {
      "type": "Feature",
      "properties": {
        "Name": "3.1 Das Eisentor",
        "audio": "https://xzymbvnljudyypdyuisf.supabase.co/storage/v1/object/public/orotava_de/3.1.mp3"
      },
      "geometry": {
        "type": "Point",
        "coordinates": [
          -16.5229748,
          28.3895012
        ]
      }
    },
    {
      "type": "Feature",
      "properties": {
        "Name": "3.2 Die Obere Terrasse",
        "audio": "https://xzymbvnljudyypdyuisf.supabase.co/storage/v1/object/public/orotava_de/3.2.mp3"
      },
      "geometry": {
        "type": "Point",
        "coordinates": [
          -16.5229748,
          28.3895012
        ]
      }
    },
    {
      "type": "Feature",
      "properties": {
        "Name": "3.3 Die Mittelachse",
        "audio": "https://xzymbvnljudyypdyuisf.supabase.co/storage/v1/object/public/orotava_de/3.3.mp3"
      },
      "geometry": {
        "type": "Point",
        "coordinates": [
          -16.5229748,
          28.3895012
        ]
      }
    },
    {
      "type": "Feature",
      "properties": {
        "Name": "3.4 Das Mausoleum",
        "audio": "https://xzymbvnljudyypdyuisf.supabase.co/storage/v1/object/public/orotava_de/3.4.mp3"
      },
      "geometry": {
        "type": "Point",
        "coordinates": [
          -16.5229748,
          28.3895012
        ]
      }
    },
    {
      "type": "Feature",
      "properties": {
        "Name": "3.5 Die Untere Terrasse",
        "audio": "https://xzymbvnljudyypdyuisf.supabase.co/storage/v1/object/public/orotava_de/3.5.mp3"
      },
      "geometry": {
        "type": "Point",
        "coordinates": [
          -16.5229748,
          28.3895012
        ]
      }
    },
    {
      "type": "Feature",
      "properties": {
        "Name": "4. Hijuela del Jardín Botánico"
      },
      "geometry": {
        "type": "Point",
        "coordinates": [
          -16.524097,
          28.3890788
        ]
      }
    },
    {
      "type": "Feature",
      "properties": {
        "Name": "4.1 Die Mittelachse",
        "audio": "https://xzymbvnljudyypdyuisf.supabase.co/storage/v1/object/public/orotava_de/4.0.mp3"
      },
      "geometry": {
        "type": "Point",
        "coordinates": [
          -16.524097,
          28.3890788
        ]
      }
    },
    {
      "type": "Feature",
      "properties": {
        "Name": "4.2 Die Araukarie: Ein lebendiger Kompass",
        "audio": "https://xzymbvnljudyypdyuisf.supabase.co/storage/v1/object/public/orotava_de/4.2.mp3"
      },
      "geometry": {
        "type": "Point",
        "coordinates": [
          -16.524097,
          28.3890788
        ]
      }
    },
    {
      "type": "Feature",
      "properties": {
        "Name": "4.3 Das Wasserbecken",
        "audio": "https://xzymbvnljudyypdyuisf.supabase.co/storage/v1/object/public/orotava_de/4.3.mp3"
      },
      "geometry": {
        "type": "Point",
        "coordinates": [
          -16.524097,
          28.3890788
        ]
      }
    },
    {
      "type": "Feature",
      "properties": {
        "Name": "4.4 Der Drache und der Kreis",
        "audio": "https://xzymbvnljudyypdyuisf.supabase.co/storage/v1/object/public/orotava_de/4.4.mp3"
      },
      "geometry": {
        "type": "Point",
        "coordinates": [
          -16.524097,
          28.3890788
        ]
      }
    },
    {
      "type": "Feature",
      "properties": {
        "Name": "4.5 Die Umfassungsmauer & Abschied",
        "audio": "https://xzymbvnljudyypdyuisf.supabase.co/storage/v1/object/public/orotava_de/4.5.mp3"
      },
      "geometry": {
        "type": "Point",
        "coordinates": [
          -16.524097,
          28.3890788
        ]
      }
    },
    {
      "type": "Feature",
      "properties": {
        "Name": "5. Rathaus und Rathausplatz",
        "audio": "https://xzymbvnljudyypdyuisf.supabase.co/storage/v1/object/public/orotava_de/5.mp3"
      },
      "geometry": {
        "type": "Point",
        "coordinates": [
          -16.5249449,
          28.3893242
        ]
      }
    },
    {
      "type": "Feature",
      "properties": {
        "Name": "6. Die Kirche La Concepción — Symbole in Stein geschrieben"
      },
      "geometry": {
        "type": "Point",
        "coordinates": [
          -16.5256631,
          28.389966
        ]
      }
    },
    {
      "type": "Feature",
      "properties": {
        "Name": "6.1 Das Hauptportal",
        "audio": "https://xzymbvnljudyypdyuisf.supabase.co/storage/v1/object/public/orotava_de/6.1.mp3"
      },
      "geometry": {
        "type": "Point",
        "coordinates": [
          -16.5256631,
          28.389966
        ]
      }
    },
    {
      "type": "Feature",
      "properties": {
        "Name": "6.2 Das Hauptschiff",
        "audio": "https://xzymbvnljudyypdyuisf.supabase.co/storage/v1/object/public/orotava_de/6.2.mp3"
      },
      "geometry": {
        "type": "Point",
        "coordinates": [
          -16.5256631,
          28.389966
        ]
      }
    },
    {
      "type": "Feature",
      "properties": {
        "Name": "6.3 Kalvarienkapelle",
        "audio": "https://xzymbvnljudyypdyuisf.supabase.co/storage/v1/object/public/orotava_de/6.3.mp3"
      },
      "geometry": {
        "type": "Point",
        "coordinates": [
          -16.5256631,
          28.389966
        ]
      }
    },
    {
      "type": "Feature",
      "properties": {
        "Name": "6.4 Kandelariakapelle",
        "audio": "https://xzymbvnljudyypdyuisf.supabase.co/storage/v1/object/public/orotava_de/6.4.mp3"
      },
      "geometry": {
        "type": "Point",
        "coordinates": [
          -16.5256631,
          28.389966
        ]
      }
    },
    {
      "type": "Feature",
      "properties": {
        "Name": "6.5 Kopf des Evangelienschiffs",
        "audio": "https://xzymbvnljudyypdyuisf.supabase.co/storage/v1/object/public/orotava_de/6.5.mp3"
      },
      "geometry": {
        "type": "Point",
        "coordinates": [
          -16.5256631,
          28.389966
        ]
      }
    },
    {
      "type": "Feature",
      "properties": {
        "Name": "6.6 Seelenkapelle",
        "audio": "https://xzymbvnljudyypdyuisf.supabase.co/storage/v1/object/public/orotava_de/6.6.mp3"
      },
      "geometry": {
        "type": "Point",
        "coordinates": [
          -16.5256631,
          28.389966
        ]
      }
    },
    {
      "type": "Feature",
      "properties": {
        "Name": "6.7 Kopf des Epistelschiffs",
        "audio": "https://xzymbvnljudyypdyuisf.supabase.co/storage/v1/object/public/orotava_de/6.7.mp3"
      },
      "geometry": {
        "type": "Point",
        "coordinates": [
          -16.5256631,
          28.389966
        ]
      }
    },
    {
      "type": "Feature",
      "properties": {
        "Name": "6.8 Hochaltar",
        "audio": "https://xzymbvnljudyypdyuisf.supabase.co/storage/v1/object/public/orotava_de/6.8.mp3"
      },
      "geometry": {
        "type": "Point",
        "coordinates": [
          -16.5256631,
          28.389966
        ]
      }
    },
    {
      "type": "Feature",
      "properties": {
        "Name": "6.9 Chor",
        "audio": "https://xzymbvnljudyypdyuisf.supabase.co/storage/v1/object/public/orotava_de/6.9.mp3"
      },
      "geometry": {
        "type": "Point",
        "coordinates": [
          -16.5256631,
          28.389966
        ]
      }
    },
    {
      "type": "Feature",
      "properties": {
        "Name": "6.10 Große Sakristei",
        "audio": "https://xzymbvnljudyypdyuisf.supabase.co/storage/v1/object/public/orotava_de/6.10.mp3"
      },
      "geometry": {
        "type": "Point",
        "coordinates": [
          -16.5256631,
          28.389966
        ]
      }
    },
    {
      "type": "Feature",
      "properties": {
        "Name": "6.11 Museumsebene 1 – Liturgischer Schatz",
        "audio": "https://xzymbvnljudyypdyuisf.supabase.co/storage/v1/object/public/orotava_de/6.11.mp3"
      },
      "geometry": {
        "type": "Point",
        "coordinates": [
          -16.5256631,
          28.389966
        ]
      }
    },
    {
      "type": "Feature",
      "properties": {
        "Name": "6.12 Museumsebene 1 – Dokumente und Register",
        "audio": "https://xzymbvnljudyypdyuisf.supabase.co/storage/v1/object/public/orotava_de/6.12.mp3"
      },
      "geometry": {
        "type": "Point",
        "coordinates": [
          -16.5256631,
          28.389966
        ]
      }
    },
    {
      "type": "Feature",
      "properties": {
        "Name": "6.13 Museumsebene 2 – Obergeschoss & Abschluss",
        "audio": "https://xzymbvnljudyypdyuisf.supabase.co/storage/v1/object/public/orotava_de/6.13.mp3"
      },
      "geometry": {
        "type": "Point",
        "coordinates": [
          -16.5256631,
          28.389966
        ]
      }
    },
    {
      "type": "Feature",
      "properties": {
        "Name": "7. Calle Tomás Zerolo",
        "audio": "https://xzymbvnljudyypdyuisf.supabase.co/storage/v1/object/public/orotava_de/7.mp3"
      },
      "geometry": {
        "type": "Point",
        "coordinates": [
          -16.5241823,
          28.3907512
        ]
      }
    },
    {
      "type": "Feature",
      "properties": {
        "Name": "8. Molino de Gofio La Máquina",
        "audio": "https://xzymbvnljudyypdyuisf.supabase.co/storage/v1/object/public/orotava_de/8.mp3"
      },
      "geometry": {
        "type": "Point",
        "coordinates": [
          -16.5260502,
          28.3889326
        ]
      }
    },
    {
      "type": "Feature",
      "properties": {
        "Name": "9. Zusätzliche Besichtigungen",
        "audio": "https://xzymbvnljudyypdyuisf.supabase.co/storage/v1/object/public/orotava_de/9.mp3"
      },
      "geometry": {
        "type": "Point",
        "coordinates": [
          -16.5258333,
          28.3883333
        ]
      }
    },
    {
      "type": "Feature",
      "properties": {
        "Name": "10. Casa Palacio Lercaro"
      },
      "geometry": {
        "type": "Point",
        "coordinates": [
          -16.5260499,
          28.3890959
        ]
      }
    },
    {
      "type": "Feature",
      "properties": {
        "Name": "10.0 Casa Palacio Lercaro — Das Herrenhaus des Ortes (Einleitung)",
        "audio": "https://xzymbvnljudyypdyuisf.supabase.co/storage/v1/object/public/orotava_de/10.0.mp3"
      },
      "geometry": {
        "type": "Point",
        "coordinates": [
          -16.5260499,
          28.3890959
        ]
      }
    },
    {
      "type": "Feature",
      "properties": {
        "Name": "10.1 Das Vestibül",
        "audio": "https://xzymbvnljudyypdyuisf.supabase.co/storage/v1/object/public/orotava_de/10.1.mp3"
      },
      "geometry": {
        "type": "Point",
        "coordinates": [
          -16.5260499,
          28.3890959
        ]
      }
    },
    {
      "type": "Feature",
      "properties": {
        "Name": "10.2 Der Innenhof",
        "audio": "https://xzymbvnljudyypdyuisf.supabase.co/storage/v1/object/public/orotava_de/10.2.mp3"
      },
      "geometry": {
        "type": "Point",
        "coordinates": [
          -16.5260499,
          28.3890959
        ]
      }
    },
    {
      "type": "Feature",
      "properties": {
        "Name": "10.3 Das Café-Restaurant",
        "audio": "https://xzymbvnljudyypdyuisf.supabase.co/storage/v1/object/public/orotava_de/10.3.mp3"
      },
      "geometry": {
        "type": "Point",
        "coordinates": [
          -16.5260499,
          28.3890959
        ]
      }
    }
  ]
}