{
  "type": "FeatureCollection",
  "name": "La Orotava Stops (FR)",
  "features": [
    {
      "type": "Feature",
      "properties": {
        "Name": "0. Introduction",
        "audio": "https://xzymbvnljudyypdyuisf.supabase.co/storage/v1/object/public/orotava_fr/0.mp3"
      },
      "geometry": {
        "type": "Point",
        "coordinates": [
          -16.5232417,
          28.3906668
        ]
      }
    },
    {
      "type": "Feature",
      "properties": {
        "Name": "1. Plaza de la Constitución",
        "audio": "https://xzymbvnljudyypdyuisf.supabase.co/storage/v1/object/public/orotava_fr/1.mp3"
      },
      "geometry": {
        "type": "Point",
        "coordinates": [
          -16.5232417,
          28.3906668
        ]
      }
    },
    {
      "type": "Feature",
      "properties": {
        "Name": "2. Liceo de Taoro"
      },
      "geometry": {
        "type": "Point",
        "coordinates": [
          -16.5226334,
          28.3901557
        ]
      }
    },
    {
      "type": "Feature",
      "properties": {
        "Name": "2.0 Liceo de Taoro",
        "audio": "https://xzymbvnljudyypdyuisf.supabase.co/storage/v1/object/public/orotava_fr/2.0.mp3"
      },
      "geometry": {
        "type": "Point",
        "coordinates": [
          -16.5226334,
          28.3901557
        ]
      }
    },
    {
      "type": "Feature",
      "properties": {
        "Name": "2.1 Les Jardins de la Terrasse",
        "audio": "https://xzymbvnljudyypdyuisf.supabase.co/storage/v1/object/public/orotava_fr/2.1.mp3"
      },
      "geometry": {
        "type": "Point",
        "coordinates": [
          -16.5226334,
          28.3901557
        ]
      }
    },
    {
      "type": "Feature",
      "properties": {
        "Name": "2.2 Le Hall du Liceo",
        "audio": "https://xzymbvnljudyypdyuisf.supabase.co/storage/v1/object/public/orotava_fr/2.2.mp3"
      },
      "geometry": {
        "type": "Point",
        "coordinates": [
          -16.5226334,
          28.3901557
        ]
      }
    },
    {
      "type": "Feature",
      "properties": {
        "Name": "2.3 La Terrasse de la Cafétéria",
        "audio": "https://xzymbvnljudyypdyuisf.supabase.co/storage/v1/object/public/orotava_fr/2.3.mp3"
      },
      "geometry": {
        "type": "Point",
        "coordinates": [
          -16.5226334,
          28.3901557
        ]
      }
    },
    {
      "type": "Feature",
      "properties": {
        "Name": "2.4 L'Escalier",
        "audio": "https://xzymbvnljudyypdyuisf.supabase.co/storage/v1/object/public/orotava_fr/2.4.mp3"
      },
      "geometry": {
        "type": "Point",
        "coordinates": [
          -16.5226334,
          28.3901557
        ]
      }
    },
    {
      "type": "Feature",
      "properties": {
        "Name": "3. The Victoria Gardens & The Masonic Mausoleum — L’exil à Quinta Roja"
      },
      "geometry": {
        "type": "Point",
        "coordinates": [
          -16.5229748,
          28.3895012
        ]
      }
    },
    {
      "type": "Feature",
      "properties": {
        "Name": "3.1 La Porte de Fer",
        "audio": "https://xzymbvnljudyypdyuisf.supabase.co/storage/v1/object/public/orotava_fr/3.1.mp3"
      },
      "geometry": {
        "type": "Point",
        "coordinates": [
          -16.5229748,
          28.3895012
        ]
      }
    },
    {
      "type": "Feature",
      "properties": {
        "Name": "3.2 La Terrasse Supérieure",
        "audio": "https://xzymbvnljudyypdyuisf.supabase.co/storage/v1/object/public/orotava_fr/3.2.mp3"
      },
      "geometry": {
        "type": "Point",
        "coordinates": [
          -16.5229748,
          28.3895012
        ]
      }
    },
    {
      "type": "Feature",
      "properties": {
        "Name": "3.3 L'Axe Central",
        "audio": "https://xzymbvnljudyypdyuisf.supabase.co/storage/v1/object/public/orotava_fr/3.3.mp3"
      },
      "geometry": {
        "type": "Point",
        "coordinates": [
          -16.5229748,
          28.3895012
        ]
      }
    },
    {
      "type": "Feature",
      "properties": {
        "Name": "3.4 Le Mausolée",
        "audio": "https://xzymbvnljudyypdyuisf.supabase.co/storage/v1/object/public/orotava_fr/3.4.mp3"
      },
      "geometry": {
        "type": "Point",
        "coordinates": [
          -16.5229748,
          28.3895012
        ]
      }
    },
    {
      "type": "Feature",
      "properties": {
        "Name": "3.5 La Terrasse Inférieure",
        "audio": "https://xzymbvnljudyypdyuisf.supabase.co/storage/v1/object/public/orotava_fr/3.5.mp3"
      },
      "geometry": {
        "type": "Point",
        "coordinates": [
          -16.5229748,
          28.3895012
        ]
      }
    },
    {
      "type": "Feature",
      "properties": {
        "Name": "4. Hijuela del Jardín Botánico"
      },
      "geometry": {
        "type": "Point",
        "coordinates": [
          -16.524097,
          28.3890788
        ]
      }
    },
    {
      "type": "Feature",
      "properties": {
        "Name": "4.0 Hijuela del Jardín Botánico — La géométrie de la lumière vivante (Introduction)",
        "audio": "https://xzymbvnljudyypdyuisf.supabase.co/storage/v1/object/public/orotava_fr/4.0.mp3"
      },
      "geometry": {
        "type": "Point",
        "coordinates": [
          -16.524097,
          28.3890788
        ]
      }
    },
    {
      "type": "Feature",
      "properties": {
        "Name": "4.1 L'Axe Central",
        "audio": "https://xzymbvnljudyypdyuisf.supabase.co/storage/v1/object/public/orotava_fr/4.1.mp3"
      },
      "geometry": {
        "type": "Point",
        "coordinates": [
          -16.524097,
          28.3890788
        ]
      }
    },
    {
      "type": "Feature",
      "properties": {
        "Name": "4.2 L'Araucaria : une boussole vivante",
        "audio": "https://xzymbvnljudyypdyuisf.supabase.co/storage/v1/object/public/orotava_fr/4.2.mp3"
      },
      "geometry": {
        "type": "Point",
        "coordinates": [
          -16.524097,
          28.3890788
        ]
      }
    },
    {
      "type": "Feature",
      "properties": {
        "Name": "4.3 Le Bassin d’Eau",
        "audio": "https://xzymbvnljudyypdyuisf.supabase.co/storage/v1/object/public/orotava_fr/4.3.mp3"
      },
      "geometry": {
        "type": "Point",
        "coordinates": [
          -16.524097,
          28.3890788
        ]
      }
    },
    {
      "type": "Feature",
      "properties": {
        "Name": "4.4 Le Drago et le Cercle",
        "audio": "https://xzymbvnljudyypdyuisf.supabase.co/storage/v1/object/public/orotava_fr/4.4.mp3"
      },
      "geometry": {
        "type": "Point",
        "coordinates": [
          -16.524097,
          28.3890788
        ]
      }
    },
    {
      "type": "Feature",
      "properties": {
        "Name": "4.5 Le Mur Périmétrique",
        "audio": "https://xzymbvnljudyypdyuisf.supabase.co/storage/v1/object/public/orotava_fr/4.5.mp3"
      },
      "geometry": {
        "type": "Point",
        "coordinates": [
          -16.524097,
          28.3890788
        ]
      }
    },
    {
      "type": "Feature",
      "properties": {
        "Name": "4.6 Rationalisme des Lumières",
        "audio": "https://xzymbvnljudyypdyuisf.supabase.co/storage/v1/object/public/orotava_fr/4.6.mp3"
      },
      "geometry": {
        "type": "Point",
        "coordinates": [
          -16.524097,
          28.3890788
        ]
      }
    },
    {
      "type": "Feature",
      "properties": {
        "Name": "5. Ayuntamiento et Plaza del Ayuntamiento",
        "audio": "https://xzymbvnljudyypdyuisf.supabase.co/storage/v1/object/public/orotava_fr/5.mp3"
      },
      "geometry": {
        "type": "Point",
        "coordinates": [
          -16.5249449,
          28.3893242
        ]
      }
    },
    {
      "type": "Feature",
      "properties": {
        "Name": "6. L’église de La Concepción — Symboles gravés dans la pierre"
      },
      "geometry": {
        "type": "Point",
        "coordinates": [
          -16.5256631,
          28.389966
        ]
      }
    },
    {
      "type": "Feature",
      "properties": {
        "Name": "6.1 La Porte Principale",
        "audio": "https://xzymbvnljudyypdyuisf.supabase.co/storage/v1/object/public/orotava_fr/6.1.mp3"
      },
      "geometry": {
        "type": "Point",
        "coordinates": [
          -16.5256631,
          28.389966
        ]
      }
    },
    {
      "type": "Feature",
      "properties": {
        "Name": "6.2 La Nef et l'Axe Central",
        "audio": "https://xzymbvnljudyypdyuisf.supabase.co/storage/v1/object/public/orotava_fr/6.2.mp3"
      },
      "geometry": {
        "type": "Point",
        "coordinates": [
          -16.5256631,
          28.389966
        ]
      }
    },
    {
      "type": "Feature",
      "properties": {
        "Name": "6.3 Chapelle du Calvaire",
        "audio": "https://xzymbvnljudyypdyuisf.supabase.co/storage/v1/object/public/orotava_fr/6.3.mp3"
      },
      "geometry": {
        "type": "Point",
        "coordinates": [
          -16.5256631,
          28.389966
        ]
      }
    },
    {
      "type": "Feature",
      "properties": {
        "Name": "6.4 Chapelle de la Candelaria",
        "audio": "https://xzymbvnljudyypdyuisf.supabase.co/storage/v1/object/public/orotava_fr/6.4.mp3"
      },
      "geometry": {
        "type": "Point",
        "coordinates": [
          -16.5256631,
          28.389966
        ]
      }
    },
    {
      "type": "Feature",
      "properties": {
        "Name": "6.5 Tête de la Nef de l'Évangile",
        "audio": "https://xzymbvnljudyypdyuisf.supabase.co/storage/v1/object/public/orotava_fr/6.5.mp3"
      },
      "geometry": {
        "type": "Point",
        "coordinates": [
          -16.5256631,
          28.389966
        ]
      }
    },
    {
      "type": "Feature",
      "properties": {
        "Name": "6.6 Chapelle des Âmes",
        "audio": "https://xzymbvnljudyypdyuisf.supabase.co/storage/v1/object/public/orotava_fr/6.6.mp3"
      },
      "geometry": {
        "type": "Point",
        "coordinates": [
          -16.5256631,
          28.389966
        ]
      }
    },
    {
      "type": "Feature",
      "properties": {
        "Name": "6.7 Tête de la Nef de l'Épître",
        "audio": "https://xzymbvnljudyypdyuisf.supabase.co/storage/v1/object/public/orotava_fr/6.7.mp3"
      },
      "geometry": {
        "type": "Point",
        "coordinates": [
          -16.5256631,
          28.389966
        ]
      }
    },
    {
      "type": "Feature",
      "properties": {
        "Name": "6.8 Autel Majeur",
        "audio": "https://xzymbvnljudyypdyuisf.supabase.co/storage/v1/object/public/orotava_fr/6.8.mp3"
      },
      "geometry": {
        "type": "Point",
        "coordinates": [
          -16.5256631,
          28.389966
        ]
      }
    },
    {
      "type": "Feature",
      "properties": {
        "Name": "6.9 Le Chœur",
        "audio": "https://xzymbvnljudyypdyuisf.supabase.co/storage/v1/object/public/orotava_fr/6.9.mp3"
      },
      "geometry": {
        "type": "Point",
        "coordinates": [
          -16.5256631,
          28.389966
        ]
      }
    },
    {
      "type": "Feature",
      "properties": {
        "Name": "6.10 Sacristie Majeure",
        "audio": "https://xzymbvnljudyypdyuisf.supabase.co/storage/v1/object/public/orotava_fr/6.10.mp3"
      },
      "geometry": {
        "type": "Point",
        "coordinates": [
          -16.5256631,
          28.389966
        ]
      }
    },
    {
      "type": "Feature",
      "properties": {
        "Name": "6.11 Musée Niveau 1 – Trésor liturgique",
        "audio": "https://xzymbvnljudyypdyuisf.supabase.co/storage/v1/object/public/orotava_fr/6.11.mp3"
      },
      "geometry": {
        "type": "Point",
        "coordinates": [
          -16.5256631,
          28.389966
        ]
      }
    },
    {
      "type": "Feature",
      "properties": {
        "Name": "6.12 Musée Niveau 1 – Documents et registres",
        "audio": "https://xzymbvnljudyypdyuisf.supabase.co/storage/v1/object/public/orotava_fr/6.12.mp3"
      },
      "geometry": {
        "type": "Point",
        "coordinates": [
          -16.5256631,
          28.389966
        ]
      }
    },
    {
      "type": "Feature",
      "properties": {
        "Name": "6.13 Musée Niveau 2 – Étage supérieur & conclusion",
        "audio": "https://xzymbvnljudyypdyuisf.supabase.co/storage/v1/object/public/orotava_fr/6.13.mp3"
      },
      "geometry": {
        "type": "Point",
        "coordinates": [
          -16.5256631,
          28.389966
        ]
      }
    },
    {
      "type": "Feature",
      "properties": {
        "Name": "7. Calle Tomás Zerolo",
        "audio": "https://xzymbvnljudyypdyuisf.supabase.co/storage/v1/object/public/orotava_fr/7.mp3"
      },
      "geometry": {
        "type": "Point",
        "coordinates": [
          -16.5241823,
          28.3907512
        ]
      }
    },
    {
      "type": "Feature",
      "properties": {
        "Name": "8. Molino de Gofio La Máquina",
        "audio": "https://xzymbvnljudyypdyuisf.supabase.co/storage/v1/object/public/orotava_fr/8.mp3"
      },
      "geometry": {
        "type": "Point",
        "coordinates": [
          -16.5260502,
          28.3889326
        ]
      }
    },
    {
      "type": "Feature",
      "properties": {
        "Name": "9. Visites Touristiques Supplémentaires",
        "audio": "https://xzymbvnljudyypdyuisf.supabase.co/storage/v1/object/public/orotava_fr/9.mp3"
      },
      "geometry": {
        "type": "Point",
        "coordinates": [
          -16.5258333,
          28.3883333
        ]
      }
    },
    {
      "type": "Feature",
      "properties": {
        "Name": "10. Casa Palacio Lercaro"
      },
      "geometry": {
        "type": "Point",
        "coordinates": [
          -16.5260499,
          28.3890959
        ]
      }
    },
    {
      "type": "Feature",
      "properties": {
        "Name": "10.0 Casa Palacio Lercaro — Le manoir de la ville (Introduction)",
        "audio": "https://xzymbvnljudyypdyuisf.supabase.co/storage/v1/object/public/orotava_fr/10.0.mp3"
      },
      "geometry": {
        "type": "Point",
        "coordinates": [
          -16.5260499,
          28.3890959
        ]
      }
    },
    {
      "type": "Feature",
      "properties": {
        "Name": "10.1 Le Vestibule",
        "audio": "https://xzymbvnljudyypdyuisf.supabase.co/storage/v1/object/public/orotava_fr/10.1.mp3"
      },
      "geometry": {
        "type": "Point",
        "coordinates": [
          -16.5260499,
          28.3890959
        ]
      }
    },
    {
      "type": "Feature",
      "properties": {
        "Name": "10.2 Le Patio",
        "audio": "https://xzymbvnljudyypdyuisf.supabase.co/storage/v1/object/public/orotava_fr/10.2.mp3"
      },
      "geometry": {
        "type": "Point",
        "coordinates": [
          -16.5260499,
          28.3890959
        ]
      }
    },
    {
      "type": "Feature",
      "properties": {
        "Name": "10.3 Le Café-Restaurant",
        "audio": "https://xzymbvnljudyypdyuisf.supabase.co/storage/v1/object/public/orotava_fr/10.3.mp3"
      },
      "geometry": {
        "type": "Point",
        "coordinates": [
          -16.5260499,
          28.3890959
        ]
      }
    }
  ]
}