{
  "type": "FeatureCollection",
  "name": "La Orotava Stops (EN)",
  "features": [
    {
      "type": "Feature",
      "properties": {
        "Name": "0. Introduction",
        "audio": "https://xzymbvnljudyypdyuisf.supabase.co/storage/v1/object/public/orotava_en/0.mp3"
      },
      "geometry": {
        "type": "Point",
        "coordinates": [
          -16.5232417,
          28.3906668
        ]
      }
    },
    {
      "type": "Feature",
      "properties": {
        "Name": "1. Plaza de la Constitución",
        "audio": "https://xzymbvnljudyypdyuisf.supabase.co/storage/v1/object/public/orotava_en/1.mp3"
      },
      "geometry": {
        "type": "Point",
        "coordinates": [
          -16.5232417,
          28.3906668
        ]
      }
    },
    {
      "type": "Feature",
      "properties": {
        "Name": "2.0 Liceo de Taoro",
        "audio": "https://xzymbvnljudyypdyuisf.supabase.co/storage/v1/object/public/orotava_en/2.0.mp3"
      },
      "geometry": {
        "type": "Point",
        "coordinates": [
          -16.5226334,
          28.3901557
        ]
      }
    },
    {
      "type": "Feature",
      "properties": {
        "Name": "2.1 The Terrace Gardens",
        "audio": "https://xzymbvnljudyypdyuisf.supabase.co/storage/v1/object/public/orotava_en/2.1.mp3"
      },
      "geometry": {
        "type": "Point",
        "coordinates": [
          -16.5226334,
          28.3901557
        ]
      }
    },
    {
      "type": "Feature",
      "properties": {
        "Name": "2.2 The Liceo Hall",
        "audio": "https://xzymbvnljudyypdyuisf.supabase.co/storage/v1/object/public/orotava_en/2.2.mp3"
      },
      "geometry": {
        "type": "Point",
        "coordinates": [
          -16.5226334,
          28.3901557
        ]
      }
    },
    {
      "type": "Feature",
      "properties": {
        "Name": "2.3 The Cafeteria Terrace",
        "audio": "https://xzymbvnljudyypdyuisf.supabase.co/storage/v1/object/public/orotava_en/2.3.mp3"
      },
      "geometry": {
        "type": "Point",
        "coordinates": [
          -16.5226334,
          28.3901557
        ]
      }
    },
    {
      "type": "Feature",
      "properties": {
        "Name": "2.4 The Staircase",
        "audio": "https://xzymbvnljudyypdyuisf.supabase.co/storage/v1/object/public/orotava_en/2.4.mp3"
      },
      "geometry": {
        "type": "Point",
        "coordinates": [
          -16.5226334,
          28.3901557
        ]
      }
    },
    {
      "type": "Feature",
      "properties": {
        "Name": "3.1 The Iron Gate",
        "audio": "https://xzymbvnljudyypdyuisf.supabase.co/storage/v1/object/public/orotava_en/3.1.mp3"
      },
      "geometry": {
        "type": "Point",
        "coordinates": [
          -16.5229748,
          28.3895012
        ]
      }
    },
    {
      "type": "Feature",
      "properties": {
        "Name": "3.2 The Upper Terrace",
        "audio": "https://xzymbvnljudyypdyuisf.supabase.co/storage/v1/object/public/orotava_en/3.2.mp3"
      },
      "geometry": {
        "type": "Point",
        "coordinates": [
          -16.5229748,
          28.3895012
        ]
      }
    },
    {
      "type": "Feature",
      "properties": {
        "Name": "3.3 The Central Axis",
        "audio": "https://xzymbvnljudyypdyuisf.supabase.co/storage/v1/object/public/orotava_en/3.3.mp3"
      },
      "geometry": {
        "type": "Point",
        "coordinates": [
          -16.5229748,
          28.3895012
        ]
      }
    },
    {
      "type": "Feature",
      "properties": {
        "Name": "3.4 The Mausoleum",
        "audio": "https://xzymbvnljudyypdyuisf.supabase.co/storage/v1/object/public/orotava_en/3.4.mp3"
      },
      "geometry": {
        "type": "Point",
        "coordinates": [
          -16.5229748,
          28.3895012
        ]
      }
    },
    {
      "type": "Feature",
      "properties": {
        "Name": "3.5 The Lower Terrace",
        "audio": "https://xzymbvnljudyypdyuisf.supabase.co/storage/v1/object/public/orotava_en/3.5.mp3"
      },
      "geometry": {
        "type": "Point",
        "coordinates": [
          -16.5229748,
          28.3895012
        ]
      }
    },
    {
      "type": "Feature",
      "properties": {
        "Name": "4.1 The Central Axis",
        "audio": "https://xzymbvnljudyypdyuisf.supabase.co/storage/v1/object/public/orotava_en/4.1.mp3"
      },
      "geometry": {
        "type": "Point",
        "coordinates": [
          -16.524097,
          28.3890788
        ]
      }
    },
    {
      "type": "Feature",
      "properties": {
        "Name": "4.2 The Araucaria",
        "audio": "https://xzymbvnljudyypdyuisf.supabase.co/storage/v1/object/public/orotava_en/4.2.mp3"
      },
      "geometry": {
        "type": "Point",
        "coordinates": [
          -16.524097,
          28.3890788
        ]
      }
    },
    {
      "type": "Feature",
      "properties": {
        "Name": "4.3 The Water Basin",
        "audio": "https://xzymbvnljudyypdyuisf.supabase.co/storage/v1/object/public/orotava_en/4.3.mp3"
      },
      "geometry": {
        "type": "Point",
        "coordinates": [
          -16.524097,
          28.3890788
        ]
      }
    },
    {
      "type": "Feature",
      "properties": {
        "Name": "4.4 The Dragon Tree",
        "audio": "https://xzymbvnljudyypdyuisf.supabase.co/storage/v1/object/public/orotava_en/4.4.mp3"
      },
      "geometry": {
        "type": "Point",
        "coordinates": [
          -16.524097,
          28.3890788
        ]
      }
    },
    {
      "type": "Feature",
      "properties": {
        "Name": "4.5 The Peripheral Wall",
        "audio": "https://xzymbvnljudyypdyuisf.supabase.co/storage/v1/object/public/orotava_en/4.5.mp3"
      },
      "geometry": {
        "type": "Point",
        "coordinates": [
          -16.524097,
          28.3890788
        ]
      }
    },
    {
      "type": "Feature",
      "properties": {
        "Name": "4.6 Farewell",
        "audio": "https://xzymbvnljudyypdyuisf.supabase.co/storage/v1/object/public/orotava_en/4.6.mp3"
      },
      "geometry": {
        "type": "Point",
        "coordinates": [
          -16.524097,
          28.3890788
        ]
      }
    },
    {
      "type": "Feature",
      "properties": {
        "Name": "5. Town Hall Square",
        "audio": "https://xzymbvnljudyypdyuisf.supabase.co/storage/v1/object/public/orotava_en/5.mp3"
      },
      "geometry": {
        "type": "Point",
        "coordinates": [
          -16.5249449,
          28.3893242
        ]
      }
    },
    {
      "type": "Feature",
      "properties": {
        "Name": "6.1 The Main Entrance",
        "audio": "https://xzymbvnljudyypdyuisf.supabase.co/storage/v1/object/public/orotava_en/6.1.mp3"
      },
      "geometry": {
        "type": "Point",
        "coordinates": [
          -16.5256631,
          28.389966
        ]
      }
    },
    {
      "type": "Feature",
      "properties": {
        "Name": "6.2 The Nave and Central Axis",
        "audio": "https://xzymbvnljudyypdyuisf.supabase.co/storage/v1/object/public/orotava_en/6.2.mp3"
      },
      "geometry": {
        "type": "Point",
        "coordinates": [
          -16.5256631,
          28.389966
        ]
      }
    },
    {
      "type": "Feature",
      "properties": {
        "Name": "6.3 Chapel of Calvary",
        "audio": "https://xzymbvnljudyypdyuisf.supabase.co/storage/v1/object/public/orotava_en/6.3.mp3"
      },
      "geometry": {
        "type": "Point",
        "coordinates": [
          -16.5256631,
          28.389966
        ]
      }
    },
    {
      "type": "Feature",
      "properties": {
        "Name": "6.4 Chapel of Candelaria",
        "audio": "https://xzymbvnljudyypdyuisf.supabase.co/storage/v1/object/public/orotava_en/6.4.mp3"
      },
      "geometry": {
        "type": "Point",
        "coordinates": [
          -16.5256631,
          28.389966
        ]
      }
    },
    {
      "type": "Feature",
      "properties": {
        "Name": "6.5 Head of the Gospel Nave",
        "audio": "https://xzymbvnljudyypdyuisf.supabase.co/storage/v1/object/public/orotava_en/6.5.mp3"
      },
      "geometry": {
        "type": "Point",
        "coordinates": [
          -16.5256631,
          28.389966
        ]
      }
    },
    {
      "type": "Feature",
      "properties": {
        "Name": "6.6 Chapel of the Souls",
        "audio": "https://xzymbvnljudyypdyuisf.supabase.co/storage/v1/object/public/orotava_en/6.6.mp3"
      },
      "geometry": {
        "type": "Point",
        "coordinates": [
          -16.5256631,
          28.389966
        ]
      }
    },
    {
      "type": "Feature",
      "properties": {
        "Name": "6.7 Head of the Epistle Nave",
        "audio": "https://xzymbvnljudyypdyuisf.supabase.co/storage/v1/object/public/orotava_en/6.7.mp3"
      },
      "geometry": {
        "type": "Point",
        "coordinates": [
          -16.5256631,
          28.389966
        ]
      }
    },
    {
      "type": "Feature",
      "properties": {
        "Name": "6.8 High Altar",
        "audio": "https://xzymbvnljudyypdyuisf.supabase.co/storage/v1/object/public/orotava_en/6.8.mp3"
      },
      "geometry": {
        "type": "Point",
        "coordinates": [
          -16.5256631,
          28.389966
        ]
      }
    },
    {
      "type": "Feature",
      "properties": {
        "Name": "6.9 Choir",
        "audio": "https://xzymbvnljudyypdyuisf.supabase.co/storage/v1/object/public/orotava_en/6.9.mp3"
      },
      "geometry": {
        "type": "Point",
        "coordinates": [
          -16.5256631,
          28.389966
        ]
      }
    },
    {
      "type": "Feature",
      "properties": {
        "Name": "6.10 Main Sacristy",
        "audio": "https://xzymbvnljudyypdyuisf.supabase.co/storage/v1/object/public/orotava_en/6.10.mp3"
      },
      "geometry": {
        "type": "Point",
        "coordinates": [
          -16.5256631,
          28.389966
        ]
      }
    },
    {
      "type": "Feature",
      "properties": {
        "Name": "6.11 Museum Level 1",
        "audio": "https://xzymbvnljudyypdyuisf.supabase.co/storage/v1/object/public/orotava_en/6.11.mp3"
      },
      "geometry": {
        "type": "Point",
        "coordinates": [
          -16.5256631,
          28.389966
        ]
      }
    },
    {
      "type": "Feature",
      "properties": {
        "Name": "6.12 Documents and Parish Records",
        "audio": "https://xzymbvnljudyypdyuisf.supabase.co/storage/v1/object/public/orotava_en/6.12.mp3"
      },
      "geometry": {
        "type": "Point",
        "coordinates": [
          -16.5256631,
          28.389966
        ]
      }
    },
    {
      "type": "Feature",
      "properties": {
        "Name": "6.13 Museum Level 2 & Return",
        "audio": "https://xzymbvnljudyypdyuisf.supabase.co/storage/v1/object/public/orotava_en/6.13.mp3"
      },
      "geometry": {
        "type": "Point",
        "coordinates": [
          -16.5256631,
          28.389966
        ]
      }
    },
    {
      "type": "Feature",
      "properties": {
        "Name": "7. Calle Tomás Zerolo",
        "audio": "https://xzymbvnljudyypdyuisf.supabase.co/storage/v1/object/public/orotava_en/7.mp3"
      },
      "geometry": {
        "type": "Point",
        "coordinates": [
          -16.5241823,
          28.3907512
        ]
      }
    },
    {
      "type": "Feature",
      "properties": {
        "Name": "8. Molino de Gofio La Máquina",
        "audio": "https://xzymbvnljudyypdyuisf.supabase.co/storage/v1/object/public/orotava_en/8.mp3"
      },
      "geometry": {
        "type": "Point",
        "coordinates": [
          -16.5260502,
          28.3889326
        ]
      }
    },
    {
      "type": "Feature",
      "properties": {
        "Name": "9. Additional Touristic Visit",
        "audio": "https://xzymbvnljudyypdyuisf.supabase.co/storage/v1/object/public/orotava_en/9.mp3"
      },
      "geometry": {
        "type": "Point",
        "coordinates": [
          -16.5258333,
          28.3883333
        ]
      }
    },
    {
      "type": "Feature",
      "properties": {
        "Name": "10.1 The Entrance Hall",
        "audio": "https://xzymbvnljudyypdyuisf.supabase.co/storage/v1/object/public/orotava_en/10.1.mp3"
      },
      "geometry": {
        "type": "Point",
        "coordinates": [
          -16.5260499,
          28.3890959
        ]
      }
    },
    {
      "type": "Feature",
      "properties": {
        "Name": "10.2 The Courtyard",
        "audio": "https://xzymbvnljudyypdyuisf.supabase.co/storage/v1/object/public/orotava_en/10.2.mp3"
      },
      "geometry": {
        "type": "Point",
        "coordinates": [
          -16.5260499,
          28.3890959
        ]
      }
    },
    {
      "type": "Feature",
      "properties": {
        "Name": "10.3 The Café-Restaurant",
        "audio": "https://xzymbvnljudyypdyuisf.supabase.co/storage/v1/object/public/orotava_en/10.3.mp3"
      },
      "geometry": {
        "type": "Point",
        "coordinates": [
          -16.5260499,
          28.3890959
        ]
      }
    }
  ]
}