{
  "type": "FeatureCollection",
  "name": "Puerto de la Cruz (DE)",
  "features": [
    {
      "type": "Feature",
      "properties": {
        "Name": "0. Introduction",
        "audio": "https://xzymbvnljudyypdyuisf.supabase.co/storage/v1/object/public/puerto-cruz_de/0.mp3"
      },
      "geometry": {
        "type": "Point",
        "coordinates": [
          -16.547949,
          28.4118131
        ]
      }
    },
    {
      "type": "Feature",
      "properties": {
        "Name": "1. Taoro Park and Gran Hotel",
        "audio": "https://xzymbvnljudyypdyuisf.supabase.co/storage/v1/object/public/puerto-cruz_de/1.mp3"
      },
      "geometry": {
        "type": "Point",
        "coordinates": [
          -16.547949,
          28.4118131
        ]
      }
    },
    {
      "type": "Feature",
      "properties": {
        "Name": "2. Avenida de Col\u00f3n",
        "audio": "https://xzymbvnljudyypdyuisf.supabase.co/storage/v1/object/public/puerto-cruz_de/2.mp3"
      },
      "geometry": {
        "type": "Point",
        "coordinates": [
          -16.5417437,
          28.417542
        ]
      }
    },
    {
      "type": "Feature",
      "properties": {
        "Name": "3. Paseo de San Telmo",
        "audio": "https://xzymbvnljudyypdyuisf.supabase.co/storage/v1/object/public/puerto-cruz_de/3.mp3"
      },
      "geometry": {
        "type": "Point",
        "coordinates": [
          -16.5456288,
          28.4176278
        ]
      }
    },
    {
      "type": "Feature",
      "properties": {
        "Name": "4. Church of Nuestra Se\u00f1ora",
        "audio": "https://xzymbvnljudyypdyuisf.supabase.co/storage/v1/object/public/puerto-cruz_de/4.mp3"
      },
      "geometry": {
        "type": "Point",
        "coordinates": [
          -16.5463681,
          28.4173442
        ]
      }
    },
    {
      "type": "Feature",
      "properties": {
        "Name": "5. Plaza de Europa",
        "audio": "https://xzymbvnljudyypdyuisf.supabase.co/storage/v1/object/public/puerto-cruz_de/5.mp3"
      },
      "geometry": {
        "type": "Point",
        "coordinates": [
          -16.5481873,
          28.4170105
        ]
      }
    },
    {
      "type": "Feature",
      "properties": {
        "Name": "6. Church of San Francisco",
        "audio": "https://xzymbvnljudyypdyuisf.supabase.co/storage/v1/object/public/puerto-cruz_de/6.mp3"
      },
      "geometry": {
        "type": "Point",
        "coordinates": [
          -16.5491026,
          28.4183182
        ]
      }
    },
    {
      "type": "Feature",
      "properties": {
        "Name": "7. Plaza del Charco",
        "audio": "https://xzymbvnljudyypdyuisf.supabase.co/storage/v1/object/public/puerto-cruz_de/7.mp3"
      },
      "geometry": {
        "type": "Point",
        "coordinates": [
          -16.5485698,
          28.4179882
        ]
      }
    },
    {
      "type": "Feature",
      "properties": {
        "Name": "8.0. La Ranilla: Where the City Dreams Itself (Introduction)",
        "audio": "https://xzymbvnljudyypdyuisf.supabase.co/storage/v1/object/public/puerto-cruz_de/8.0.mp3"
      },
      "geometry": {
        "type": "Point",
        "coordinates": [
          -16.5501121,
          28.4179927
        ]
      }
    },
    {
      "type": "Feature",
      "properties": {
        "Name": "8.1. \"La frontera del para\u00edso\" (Mequinez Street, 2)",
        "audio": "https://xzymbvnljudyypdyuisf.supabase.co/storage/v1/object/public/puerto-cruz_de/8.1.mp3"
      },
      "geometry": {
        "type": "Point",
        "coordinates": [
          -16.5501121,
          28.4179927
        ]
      }
    },
    {
      "type": "Feature",
      "properties": {
        "Name": "8.2. \"\u00a1Rum, rum, rum, la botella de rum!\" (Mequinez Street, 4)",
        "audio": "https://xzymbvnljudyypdyuisf.supabase.co/storage/v1/object/public/puerto-cruz_de/8.2.mp3"
      },
      "geometry": {
        "type": "Point",
        "coordinates": [
          -16.5501121,
          28.4179927
        ]
      }
    },
    {
      "type": "Feature",
      "properties": {
        "Name": "8.3. \"La Macaronesia\" (Mequinez Street, 21)",
        "audio": "https://xzymbvnljudyypdyuisf.supabase.co/storage/v1/object/public/puerto-cruz_de/8.3.mp3"
      },
      "geometry": {
        "type": "Point",
        "coordinates": [
          -16.5501121,
          28.4179927
        ]
      }
    },
    {
      "type": "Feature",
      "properties": {
        "Name": "8.4. \"El Ni\u00f1o de las Pinturas\" (Mequinez Street, 66)",
        "audio": "https://xzymbvnljudyypdyuisf.supabase.co/storage/v1/object/public/puerto-cruz_de/8.4.mp3"
      },
      "geometry": {
        "type": "Point",
        "coordinates": [
          -16.5501121,
          28.4179927
        ]
      }
    },
    {
      "type": "Feature",
      "properties": {
        "Name": "8.5. \"Si puedes so\u00f1arlo, puedes crearlo\" (Maretas Street, 11)",
        "audio": "https://xzymbvnljudyypdyuisf.supabase.co/storage/v1/object/public/puerto-cruz_de/8.5.mp3"
      },
      "geometry": {
        "type": "Point",
        "coordinates": [
          -16.5501121,
          28.4179927
        ]
      }
    },
    {
      "type": "Feature",
      "properties": {
        "Name": "8.6. Mural (Pe\u00f1ita Street, 6)",
        "audio": "https://xzymbvnljudyypdyuisf.supabase.co/storage/v1/object/public/puerto-cruz_de/8.6.mp3"
      },
      "geometry": {
        "type": "Point",
        "coordinates": [
          -16.5501121,
          28.4179927
        ]
      }
    },
    {
      "type": "Feature",
      "properties": {
        "Name": "8.7. \"Los Magos\" (El Lomo Street, 28)",
        "audio": "https://xzymbvnljudyypdyuisf.supabase.co/storage/v1/object/public/puerto-cruz_de/8.7.mp3"
      },
      "geometry": {
        "type": "Point",
        "coordinates": [
          -16.5501121,
          28.4179927
        ]
      }
    },
    {
      "type": "Feature",
      "properties": {
        "Name": "8.8. Mural (Teobaldo Power Street, 28)",
        "audio": "https://xzymbvnljudyypdyuisf.supabase.co/storage/v1/object/public/puerto-cruz_de/8.8.mp3"
      },
      "geometry": {
        "type": "Point",
        "coordinates": [
          -16.5501121,
          28.4179927
        ]
      }
    },
    {
      "type": "Feature",
      "properties": {
        "Name": "8.9. \"La eterna juventud\" (Puerto Viejo Street, 17)",
        "audio": "https://xzymbvnljudyypdyuisf.supabase.co/storage/v1/object/public/puerto-cruz_de/8.9.mp3"
      },
      "geometry": {
        "type": "Point",
        "coordinates": [
          -16.5501121,
          28.4179927
        ]
      }
    },
    {
      "type": "Feature",
      "properties": {
        "Name": "8.10. \"Ritual\" (Teobaldo Power Street, 16)",
        "audio": "https://xzymbvnljudyypdyuisf.supabase.co/storage/v1/object/public/puerto-cruz_de/8.10.mp3"
      },
      "geometry": {
        "type": "Point",
        "coordinates": [
          -16.5501121,
          28.4179927
        ]
      }
    },
    {
      "type": "Feature",
      "properties": {
        "Name": "8.11. \"Nav\u00edos vol\u00e1tiles\" (Teobaldo Power Street, 8)",
        "audio": "https://xzymbvnljudyypdyuisf.supabase.co/storage/v1/object/public/puerto-cruz_de/8.11.mp3"
      },
      "geometry": {
        "type": "Point",
        "coordinates": [
          -16.5501121,
          28.4179927
        ]
      }
    },
    {
      "type": "Feature",
      "properties": {
        "Name": "8.12. Mural (El Lomo Street, 7)",
        "audio": "https://xzymbvnljudyypdyuisf.supabase.co/storage/v1/object/public/puerto-cruz_de/8.12.mp3"
      },
      "geometry": {
        "type": "Point",
        "coordinates": [
          -16.5501121,
          28.4179927
        ]
      }
    },
    {
      "type": "Feature",
      "properties": {
        "Name": "8.13. \"\u00c1nfora voladora\" (Cruz Verde Street, 3)",
        "audio": "https://xzymbvnljudyypdyuisf.supabase.co/storage/v1/object/public/puerto-cruz_de/8.13.mp3"
      },
      "geometry": {
        "type": "Point",
        "coordinates": [
          -16.5501121,
          28.4179927
        ]
      }
    },
    {
      "type": "Feature",
      "properties": {
        "Name": "8.14. La Ranilla: The Synthesis of the City (Outro)",
        "audio": "https://xzymbvnljudyypdyuisf.supabase.co/storage/v1/object/public/puerto-cruz_de/8.14.mp3"
      },
      "geometry": {
        "type": "Point",
        "coordinates": [
          -16.5501121,
          28.4179927
        ]
      }
    },
    {
      "type": "Feature",
      "properties": {
        "Name": "9. Castillo de San Felipe",
        "audio": "https://xzymbvnljudyypdyuisf.supabase.co/storage/v1/object/public/puerto-cruz_de/9.mp3"
      },
      "geometry": {
        "type": "Point",
        "coordinates": [
          -16.5488618,
          28.4178853
        ]
      }
    },
    {
      "type": "Feature",
      "properties": {
        "Name": "10. Playa Jard\u00edn",
        "audio": "https://xzymbvnljudyypdyuisf.supabase.co/storage/v1/object/public/puerto-cruz_de/10.mp3"
      },
      "geometry": {
        "type": "Point",
        "coordinates": [
          -16.5499245,
          28.4168196
        ]
      }
    },
    {
      "type": "Feature",
      "properties": {
        "Name": "11. Final thoughts",
        "audio": "https://xzymbvnljudyypdyuisf.supabase.co/storage/v1/object/public/puerto-cruz_de/11.mp3"
      },
      "geometry": {
        "type": "Point",
        "coordinates": [
          -16.5499245,
          28.4168196
        ]
      }
    }
  ]
}
