{
  "type": "FeatureCollection",
  "name": "Puerto de la Cruz Étapes",
  "features": [
    {
      "type": "Feature",
      "properties": {
        "Name": "1. Parc Taoro et le Gran Hotel Taoro",
        "audio": "https://xzymbvnljudyypdyuisf.supabase.co/storage/v1/object/public/puerto-cruz_fr/1.mp3"
      },
      "geometry": {
        "type": "Point",
        "coordinates": [
          -16.547949,
          28.4118131
        ]
      }
    },
    {
      "type": "Feature",
      "properties": {
        "Name": "2. Avenida de Colón",
        "audio": "https://xzymbvnljudyypdyuisf.supabase.co/storage/v1/object/public/puerto-cruz_fr/2.mp3"
      },
      "geometry": {
        "type": "Point",
        "coordinates": [
          -16.5417437,
          28.417542
        ]
      }
    },
    {
      "type": "Feature",
      "properties": {
        "Name": "3. Place-Belvédère de l'Ermitage de San Telmo",
        "audio": "https://xzymbvnljudyypdyuisf.supabase.co/storage/v1/object/public/puerto-cruz_fr/3.mp3"
      },
      "geometry": {
        "type": "Point",
        "coordinates": [
          -16.5456288,
          28.4176278
        ]
      }
    },
    {
      "type": "Feature",
      "properties": {
        "Name": "Belvédère de San Telmo",
        "audio": "https://xzymbvnljudyypdyuisf.supabase.co/storage/v1/object/public/puerto-cruz_fr/3.mp3"
      },
      "geometry": {
        "type": "Point",
        "coordinates": [
          -16.5463681,
          28.4173442
        ]
      }
    },
    {
      "type": "Feature",
      "properties": {
        "Name": "4. Église Nuestra Señora de la Peña de Francia",
        "audio": "https://xzymbvnljudyypdyuisf.supabase.co/storage/v1/object/public/puerto-cruz_fr/4.mp3"
      },
      "geometry": {
        "type": "Point",
        "coordinates": [
          -16.5481873,
          28.4170105
        ]
      }
    },
    {
      "type": "Feature",
      "properties": {
        "Name": "5. Plaza de Europa",
        "audio": "https://xzymbvnljudyypdyuisf.supabase.co/storage/v1/object/public/puerto-cruz_fr/5.mp3"
      },
      "geometry": {
        "type": "Point",
        "coordinates": [
          -16.5491026,
          28.4183182
        ]
      }
    },
    {
      "type": "Feature",
      "properties": {
        "Name": "5.1 Hôtel de Ville de Puerto de la Cruz",
        "audio": "https://xzymbvnljudyypdyuisf.supabase.co/storage/v1/object/public/puerto-cruz_fr/5.mp3"
      },
      "geometry": {
        "type": "Point",
        "coordinates": [
          -16.5485698,
          28.4179882
        ]
      }
    },
    {
      "type": "Feature",
      "properties": {
        "Name": "5.2 Casa de la Aduana",
        "audio": "https://xzymbvnljudyypdyuisf.supabase.co/storage/v1/object/public/puerto-cruz_fr/5.mp3"
      },
      "geometry": {
        "type": "Point",
        "coordinates": [
          -16.5501121,
          28.4179927
        ]
      }
    },
    {
      "type": "Feature",
      "properties": {
        "Name": "5.3 Casa de Miranda",
        "audio": "https://xzymbvnljudyypdyuisf.supabase.co/storage/v1/object/public/puerto-cruz_fr/5.mp3"
      },
      "geometry": {
        "type": "Point",
        "coordinates": [
          -16.5488618,
          28.4178853
        ]
      }
    },
    {
      "type": "Feature",
      "properties": {
        "Name": "6. Église San Francisco",
        "audio": "https://xzymbvnljudyypdyuisf.supabase.co/storage/v1/object/public/puerto-cruz_fr/6.mp3"
      },
      "geometry": {
        "type": "Point",
        "coordinates": [
          -16.5499245,
          28.4168196
        ]
      }
    },
    {
      "type": "Feature",
      "properties": {
        "Name": "7. Plaza del Charco",
        "audio": "https://xzymbvnljudyypdyuisf.supabase.co/storage/v1/object/public/puerto-cruz_fr/7.mp3"
      },
      "geometry": {
        "type": "Point",
        "coordinates": [
          -16.5504946,
          28.4166788
        ]
      }
    },
    {
      "type": "Feature",
      "properties": {
        "Name": "8. La Ranilla",
        "audio": "https://xzymbvnljudyypdyuisf.supabase.co/storage/v1/object/public/puerto-cruz_fr/8.0.mp3"
      },
      "geometry": {
        "type": "Point",
        "coordinates": [
          -16.5538396,
          28.4175173
        ]
      }
    },
    {
      "type": "Feature",
      "properties": {
        "Name": "8.1 \"La frontera del paraíso\" (Rue Mequinez, 2)",
        "audio": "https://xzymbvnljudyypdyuisf.supabase.co/storage/v1/object/public/puerto-cruz_fr/8.1.mp3"
      },
      "geometry": {
        "type": "Point",
        "coordinates": [
          -16.5516327,
          28.4177858
        ]
      }
    },
    {
      "type": "Feature",
      "properties": {
        "Name": "8.2 \"¡Rum, rum, rum, la botella de rum!\" (Rue Mequinez, 4)",
        "audio": "https://xzymbvnljudyypdyuisf.supabase.co/storage/v1/object/public/puerto-cruz_fr/8.2.mp3"
      },
      "geometry": {
        "type": "Point",
        "coordinates": [
          -16.5520908,
          28.4177605
        ]
      }
    },
    {
      "type": "Feature",
      "properties": {
        "Name": "8.3 \"La Macaronesia\" (Rue Mequinez, 21)",
        "audio": "https://xzymbvnljudyypdyuisf.supabase.co/storage/v1/object/public/puerto-cruz_fr/8.3.mp3"
      },
      "geometry": {
        "type": "Point",
        "coordinates": [
          -16.5524578,
          28.4175767
        ]
      }
    },
    {
      "type": "Feature",
      "properties": {
        "Name": "8.4 \"El Niño de las Pinturas\" (Rue Mequinez, 66)",
        "audio": "https://xzymbvnljudyypdyuisf.supabase.co/storage/v1/object/public/puerto-cruz_fr/8.4.mp3"
      },
      "geometry": {
        "type": "Point",
        "coordinates": [
          -16.5542802,
          28.4176471
        ]
      }
    },
    {
      "type": "Feature",
      "properties": {
        "Name": "8.5 \"Si puedes soñarlo, puedes crearlo\" (Rue Maretas, 11)",
        "audio": "https://xzymbvnljudyypdyuisf.supabase.co/storage/v1/object/public/puerto-cruz_fr/8.5.mp3"
      },
      "geometry": {
        "type": "Point",
        "coordinates": [
          -16.5543779,
          28.4166145
        ]
      }
    },
    {
      "type": "Feature",
      "properties": {
        "Name": "8.6 Peinture murale (Rue Peñita, 6)",
        "audio": "https://xzymbvnljudyypdyuisf.supabase.co/storage/v1/object/public/puerto-cruz_fr/8.6.mp3"
      },
      "geometry": {
        "type": "Point",
        "coordinates": [
          -16.5538448,
          28.4168053
        ]
      }
    },
    {
      "type": "Feature",
      "properties": {
        "Name": "8.7 \"Los Magos\" (Rue El Lomo, 28)",
        "audio": "https://xzymbvnljudyypdyuisf.supabase.co/storage/v1/object/public/puerto-cruz_fr/8.7.mp3"
      },
      "geometry": {
        "type": "Point",
        "coordinates": [
          -16.5533527,
          28.417294
        ]
      }
    },
    {
      "type": "Feature",
      "properties": {
        "Name": "8.8 Peinture murale (Rue Teobaldo Power, 28)",
        "audio": "https://xzymbvnljudyypdyuisf.supabase.co/storage/v1/object/public/puerto-cruz_fr/8.8.mp3"
      },
      "geometry": {
        "type": "Point",
        "coordinates": [
          -16.5528499,
          28.4162771
        ]
      }
    },
    {
      "type": "Feature",
      "properties": {
        "Name": "8.9 \"La eterna juventud\" (Rue Puerto Viejo, 17)",
        "audio": "https://xzymbvnljudyypdyuisf.supabase.co/storage/v1/object/public/puerto-cruz_fr/8.9.mp3"
      },
      "geometry": {
        "type": "Point",
        "coordinates": [
          -16.5524201,
          28.4158471
        ]
      }
    },
    {
      "type": "Feature",
      "properties": {
        "Name": "8.10 \"Ritual\" (Rue Teobaldo Power, 16)",
        "audio": "https://xzymbvnljudyypdyuisf.supabase.co/storage/v1/object/public/puerto-cruz_fr/8.10.mp3"
      },
      "geometry": {
        "type": "Point",
        "coordinates": [
          -16.5529532,
          28.4168439
        ]
      }
    },
    {
      "type": "Feature",
      "properties": {
        "Name": "8.11 \"Navíos volátiles\" (Rue Teobaldo Power, 8)",
        "audio": "https://xzymbvnljudyypdyuisf.supabase.co/storage/v1/object/public/puerto-cruz_fr/8.11.mp3"
      },
      "geometry": {
        "type": "Point",
        "coordinates": [
          -16.5529532,
          28.4168439
        ]
      }
    },
    {
      "type": "Feature",
      "properties": {
        "Name": "8.12 Peinture murale (Rue El Lomo, 7)",
        "audio": "https://xzymbvnljudyypdyuisf.supabase.co/storage/v1/object/public/puerto-cruz_fr/8.12.mp3"
      },
      "geometry": {
        "type": "Point",
        "coordinates": [
          -16.5522205,
          28.4170627
        ]
      }
    },
    {
      "type": "Feature",
      "properties": {
        "Name": "8.13 \"Ánfora voladora\" (Rue Cruz Verde, 3)",
        "audio": "https://xzymbvnljudyypdyuisf.supabase.co/storage/v1/object/public/puerto-cruz_fr/8.13.mp3"
      },
      "geometry": {
        "type": "Point",
        "coordinates": [
          -16.5521765,
          28.4174288
        ]
      }
    },
    {
      "type": "Feature",
      "properties": {
        "Name": "9. Castillo de San Felipe",
        "audio": "https://xzymbvnljudyypdyuisf.supabase.co/storage/v1/object/public/puerto-cruz_fr/9.mp3"
      },
      "geometry": {
        "type": "Point",
        "coordinates": [
          -16.5584324,
          28.4143524
        ]
      }
    },
    {
      "type": "Feature",
      "properties": {
        "Name": "10. Playa Jardín",
        "audio": "https://xzymbvnljudyypdyuisf.supabase.co/storage/v1/object/public/puerto-cruz_fr/10.mp3"
      },
      "geometry": {
        "type": "Point",
        "coordinates": [
          -16.5585252,
          28.4127752
        ]
      }
    }
  ]
}