{
  "type": "FeatureCollection",
  "name": "Santa Cruz Étapes",
  "features": [
    {
      "type": "Feature",
      "properties": {
        "Name": "1. Auditorio de Tenerife : La vague à l’horizon",
        "audio": "https://xzymbvnljudyypdyuisf.supabase.co/storage/v1/object/public/santa-cruz_fr/1.mp3"
      },
      "geometry": {
        "type": "Point",
        "coordinates": [
          -16.251352,
          28.4561009
        ]
      }
    },
    {
      "type": "Feature",
      "properties": {
        "Name": "2. Castillo de San Juan Bautista (Castillo Negro) : La sentinelle de lave",
        "audio": "https://xzymbvnljudyypdyuisf.supabase.co/storage/v1/object/public/santa-cruz_fr/2.mp3"
      },
      "geometry": {
        "type": "Point",
        "coordinates": [
          -16.2523846,
          28.4554121
        ]
      }
    },
    {
      "type": "Feature",
      "properties": {
        "Name": "3. Église de La Concepción & Calle de la Noria"
      },
      "geometry": {
        "type": "Point",
        "coordinates": [
          -16.2490285,
          28.4644615
        ]
      }
    },
    {
      "type": "Feature",
      "properties": {
        "Name": "3.1. Église de La Concepción : La naissance de la ville",
        "audio": "https://xzymbvnljudyypdyuisf.supabase.co/storage/v1/object/public/santa-cruz_fr/3.1.mp3"
      },
      "geometry": {
        "type": "Point",
        "coordinates": [
          -16.2490285,
          28.4644615
        ]
      }
    },
    {
      "type": "Feature",
      "properties": {
        "Name": "3.2. Calle de la Noria : Le cœur historique de Santa Cruz",
        "audio": "https://xzymbvnljudyypdyuisf.supabase.co/storage/v1/object/public/santa-cruz_fr/3.2.mp3"
      },
      "geometry": {
        "type": "Point",
        "coordinates": [
          -16.250358,
          28.4649052
        ]
      }
    },
    {
      "type": "Feature",
      "properties": {
        "Name": "4. Plaza de España & Castillo de San Cristóbal",
        "audio": "https://xzymbvnljudyypdyuisf.supabase.co/storage/v1/object/public/santa-cruz_fr/4.mp3"
      },
      "geometry": {
        "type": "Point",
        "coordinates": [
          -16.2473624,
          28.4676874
        ]
      }
    },
    {
      "type": "Feature",
      "properties": {
        "Name": "4.1. Castillo de San Cristóbal",
        "audio": "https://xzymbvnljudyypdyuisf.supabase.co/storage/v1/object/public/santa-cruz_fr/4.mp3"
      },
      "geometry": {
        "type": "Point",
        "coordinates": [
          -16.2467901,
          28.4669857
        ]
      }
    },
    {
      "type": "Feature",
      "properties": {
        "Name": "5. Plaza del Chicharro & Plaza del Príncipe",
        "audio": "https://xzymbvnljudyypdyuisf.supabase.co/storage/v1/object/public/santa-cruz_fr/5.mp3"
      },
      "geometry": {
        "type": "Point",
        "coordinates": [
          -16.2506229,
          28.4676915
        ]
      }
    },
    {
      "type": "Feature",
      "properties": {
        "Name": "5.1. Plaza del Príncipe",
        "audio": "https://xzymbvnljudyypdyuisf.supabase.co/storage/v1/object/public/santa-cruz_fr/5.mp3"
      },
      "geometry": {
        "type": "Point",
        "coordinates": [
          -16.250331,
          28.4682518
        ]
      }
    },
    {
      "type": "Feature",
      "properties": {
        "Name": "6. Le temple maçonnique : Quartier général des symboles cachés",
        "audio": "https://xzymbvnljudyypdyuisf.supabase.co/storage/v1/object/public/santa-cruz_fr/6.mp3"
      },
      "geometry": {
        "type": "Point",
        "coordinates": [
          -16.2528559,
          28.4687517
        ]
      }
    },
    {
      "type": "Feature",
      "properties": {
        "Name": "7. Parc García Sanabria : Le jardin exotique de Santa Cruz"
      },
      "geometry": {
        "type": "Point",
        "coordinates": [
          -16.2535446,
          28.4720365
        ]
      }
    },
    {
      "type": "Feature",
      "properties": {
        "Name": "7.1. L’horloge fleurie – L’entrée symbolique",
        "audio": "https://xzymbvnljudyypdyuisf.supabase.co/storage/v1/object/public/santa-cruz_fr/7.1.mp3"
      },
      "geometry": {
        "type": "Point",
        "coordinates": [
          -16.2532834,
          28.4715172
        ]
      }
    },
    {
      "type": "Feature",
      "properties": {
        "Name": "7.2. La fontaine et la place centrale",
        "audio": "https://xzymbvnljudyypdyuisf.supabase.co/storage/v1/object/public/santa-cruz_fr/7.2.mp3"
      },
      "geometry": {
        "type": "Point",
        "coordinates": [
          -16.253667,
          28.4720447
        ]
      }
    },
    {
      "type": "Feature",
      "properties": {
        "Name": "7.3. L’allée de la roseraie",
        "audio": "https://xzymbvnljudyypdyuisf.supabase.co/storage/v1/object/public/santa-cruz_fr/7.3.mp3"
      },
      "geometry": {
        "type": "Point",
        "coordinates": [
          -16.2541501,
          28.4726292
        ]
      }
    },
    {
      "type": "Feature",
      "properties": {
        "Name": "7.4. L’étang des nénuphars",
        "audio": "https://xzymbvnljudyypdyuisf.supabase.co/storage/v1/object/public/santa-cruz_fr/7.4.mp3"
      },
      "geometry": {
        "type": "Point",
        "coordinates": [
          -16.2535731,
          28.4722885
        ]
      }
    },
    {
      "type": "Feature",
      "properties": {
        "Name": "7.6. Le monument au chat",
        "audio": "https://xzymbvnljudyypdyuisf.supabase.co/storage/v1/object/public/santa-cruz_fr/7.6.mp3"
      },
      "geometry": {
        "type": "Point",
        "coordinates": [
          -16.2532737,
          28.4723845
        ]
      }
    },
    {
      "type": "Feature",
      "properties": {
        "Name": "8. Plaza de los Patos : Écho de la franc-maçonnerie",
        "audio": "https://xzymbvnljudyypdyuisf.supabase.co/storage/v1/object/public/santa-cruz_fr/8.mp3"
      },
      "geometry": {
        "type": "Point",
        "coordinates": [
          -16.2558131,
          28.470559
        ]
      }
    },
    {
      "type": "Feature",
      "properties": {
        "Name": "9. Plaza Weyler : Le passage vers la ville moderne",
        "audio": "https://xzymbvnljudyypdyuisf.supabase.co/storage/v1/object/public/santa-cruz_fr/9.mp3"
      },
      "geometry": {
        "type": "Point",
        "coordinates": [
          -16.2554298,
          28.4675177
        ]
      }
    },
    {
      "type": "Feature",
      "properties": {
        "Name": "10. Casa del Carnaval : Tradition et masques",
        "audio": "https://xzymbvnljudyypdyuisf.supabase.co/storage/v1/object/public/santa-cruz_fr/10.mp3"
      },
      "geometry": {
        "type": "Point",
        "coordinates": [
          -16.2558632,
          28.4646698
        ]
      }
    },
    {
      "type": "Feature",
      "properties": {
        "Name": "11. Marché Nuestra Señora de África (La Recova) : Le souk de l’Atlantique",
        "audio": "https://xzymbvnljudyypdyuisf.supabase.co/storage/v1/object/public/santa-cruz_fr/11.mp3"
      },
      "geometry": {
        "type": "Point",
        "coordinates": [
          -16.2518818,
          28.4633506
        ]
      }
    },
    {
      "type": "Feature",
      "properties": {
        "Name": "12. TEA (Tenerife Espacio de las Artes) : Les archives du temps",
        "audio": "https://xzymbvnljudyypdyuisf.supabase.co/storage/v1/object/public/santa-cruz_fr/12.mp3"
      },
      "geometry": {
        "type": "Point",
        "coordinates": [
          -16.2510159,
          28.4639687
        ]
      }
    },
    {
      "type": "Feature",
      "properties": {
        "Name": "13. Teatro Guimerá : La première scène de la ville",
        "audio": "https://xzymbvnljudyypdyuisf.supabase.co/storage/v1/object/public/santa-cruz_fr/13.mp3"
      },
      "geometry": {
        "type": "Point",
        "coordinates": [
          -16.2508954,
          28.4658898
        ]
      }
    },
    {
      "type": "Feature",
      "properties": {
        "Name": "14. Plaza et église San Francisco : La mémoire de Santa Cruz",
        "audio": "https://xzymbvnljudyypdyuisf.supabase.co/storage/v1/object/public/santa-cruz_fr/14.mp3"
      },
      "geometry": {
        "type": "Point",
        "coordinates": [
          -16.2493033,
          28.4679412
        ]
      }
    }
  ]
}